{"type": "FeatureCollection", "features": [{"type": "Feature", "properties": {"code": "LZ_HOUSTON"}, "geometry": {"type": "MultiPolygon", "coordinates": [[[[-95.502, 28.828], [-95.507, 28.826], [-95.506, 28.828], [-95.502, 28.828]]], [[[-95.494, 28.837], [-95.504, 28.829], [-95.503, 28.837], [-95.494, 28.837]]], [[[-95.508, 28.842], [-95.533, 28.83], [-95.509, 28.846], [-95.508, 28.842]]], [[[-95.494, 28.852], [-95.504, 28.84], [-95.508, 28.846], [-95.494, 28.852]]], [[[-95.474, 28.862], [-95.491, 28.853], [-95.493, 28.854], [-95.474, 28.862]]], [[[-95.461, 28.864], [-95.465, 28.859], [-95.473, 28.863], [-95.461, 28.864]]], [[[-95.44, 28.867], [-95.486, 28.838], [-95.478, 28.859], [-95.44, 28.867]]], [[[-95.384, 28.87], [-95.385, 28.87], [-95.383, 28.872], [-95.384, 28.87]]], [[[-95.383, 28.883], [-95.382, 28.88], [-95.383, 28.881], [-95.383, 28.883]]], [[[-95.39, 28.897], [-95.38, 28.878], [-95.386, 28.887], [-95.415, 28.868], [-95.4, 28.865], [-95.444, 28.871], [-95.39, 28.897]]], [[[-95.312, 28.939], [-95.298, 28.935], [-95.378, 28.878], [-95.382, 28.896], [-95.312, 28.939]]], [[[-95.304, 28.966], [-95.303, 28.955], [-95.309, 28.961], [-95.304, 28.966]]], [[[-95.161, 29.066], [-95.16, 29.062], [-95.167, 29.064], [-95.161, 29.066]]], [[[-95.157, 29.072], [-95.158, 29.066], [-95.168, 29.07], [-95.157, 29.072]]], [[[-95.151, 29.092], [-95.139, 29.071], [-95.198, 29.067], [-95.224, 29.043], [-95.21, 29.029], [-95.227, 29.031], [-95.247, 28.99], [-95.168, 29.046], [-95.157, 29.071], [-95.134, 29.081], [-95.124, 29.071], [-95.295, 28.937], [-95.306, 28.944], [-95.275, 28.978], [-95.284, 28.961], [-95.263, 28.973], [-95.274, 28.979], [-95.234, 29.021], [-95.202, 29.098], [-95.185, 29.078], [-95.158, 29.08], [-95.158, 29.101], [-95.151, 29.092]]], [[[-95.16, 29.142], [-95.163, 29.099], [-95.176, 29.112], [-95.201, 29.101], [-95.183, 29.122], [-95.171, 29.114], [-95.176, 29.13], [-95.16, 29.142]]], [[[-95.107, 29.172], [-95.111, 29.173], [-95.101, 29.175], [-95.107, 29.172]]], [[[-95.104, 29.192], [-95.104, 29.188], [-95.109, 29.191], [-95.104, 29.192]]], [[[-95.093, 29.195], [-95.09, 29.19], [-95.095, 29.191], [-95.093, 29.195]]], [[[-95.071, 29.206], [-95.086, 29.199], [-95.084, 29.206], [-95.071, 29.206]]], [[[-95.14, 29.208], [-95.135, 29.204], [-95.14, 29.205], [-95.14, 29.208]]], [[[-95.145, 29.209], [-95.142, 29.205], [-95.147, 29.208], [-95.145, 29.209]]], [[[-94.945, 29.231], [-94.938, 29.224], [-94.955, 29.23], [-94.945, 29.231]]], [[[-95.216, 29.226], [-95.216, 29.234], [-95.212, 29.234], [-95.216, 29.226]]], [[[-94.93, 29.238], [-94.93, 29.237], [-94.93, 29.238], [-94.93, 29.238]]], [[[-94.928, 29.239], [-94.928, 29.238], [-94.93, 29.238], [-94.928, 29.239]]], [[[-95.021, 29.234], [-95.035, 29.21], [-95.066, 29.195], [-95.021, 29.234]]], [[[-95.225, 29.245], [-95.219, 29.24], [-95.227, 29.244], [-95.225, 29.245]]], [[[-94.99, 29.265], [-95.003, 29.247], [-95.013, 29.24], [-94.99, 29.265]]], [[[-94.909, 29.27], [-94.915, 29.273], [-94.909, 29.274], [-94.909, 29.27]]], [[[-94.968, 29.282], [-94.986, 29.269], [-94.974, 29.28], [-94.968, 29.282]]], [[[-94.923, 29.289], [-94.921, 29.284], [-94.932, 29.285], [-94.923, 29.289]]], [[[-94.908, 29.302], [-94.913, 29.293], [-94.929, 29.298], [-94.908, 29.302]]], [[[-94.731, 29.337], [-94.795, 29.284], [-95.12, 29.088], [-95.093, 29.123], [-95.048, 29.138], [-95, 29.174], [-95.006, 29.183], [-94.988, 29.181], [-94.992, 29.2], [-94.982, 29.188], [-94.987, 29.201], [-94.96, 29.202], [-94.971, 29.21], [-94.958, 29.202], [-94.944, 29.223], [-94.914, 29.223], [-94.951, 29.231], [-94.92, 29.232], [-94.92, 29.247], [-94.909, 29.236], [-94.914, 29.253], [-94.902, 29.241], [-94.902, 29.261], [-94.918, 29.256], [-94.891, 29.269], [-94.886, 29.242], [-94.875, 29.251], [-94.888, 29.27], [-94.857, 29.279], [-94.842, 29.263], [-94.837, 29.286], [-94.881, 29.279], [-94.874, 29.29], [-94.778, 29.313], [-94.767, 29.337], [-94.75, 29.334], [-94.76, 29.318], [-94.731, 29.337]]], [[[-94.783, 29.334], [-94.792, 29.315], [-94.822, 29.313], [-94.813, 29.351], [-94.783, 29.334]]], [[[-94.825, 29.355], [-94.82, 29.35], [-94.831, 29.346], [-94.825, 29.355]]], [[[-94.72, 29.427], [-94.783, 29.375], [-94.766, 29.393], [-94.72, 29.427]]], [[[-95.015, 29.465], [-95.015, 29.466], [-95.014, 29.465], [-95.015, 29.465]]], [[[-94.941, 29.48], [-94.941, 29.48], [-94.941, 29.481], [-94.941, 29.48]]], [[[-94.969, 29.501], [-94.969, 29.499], [-94.976, 29.495], [-94.969, 29.501]]], [[[-94.511, 29.516], [-94.5, 29.507], [-94.686, 29.421], [-94.733, 29.367], [-94.779, 29.363], [-94.681, 29.454], [-94.664, 29.446], [-94.67, 29.458], [-94.511, 29.516]]], [[[-94.561, 29.53], [-94.515, 29.517], [-94.703, 29.439], [-94.681, 29.471], [-94.668, 29.464], [-94.672, 29.476], [-94.592, 29.493], [-94.591, 29.513], [-94.561, 29.53]]], [[[-95.068, 29.545], [-95.071, 29.543], [-95.073, 29.545], [-95.068, 29.545]]], [[[-95.08, 29.544], [-95.081, 29.547], [-95.079, 29.55], [-95.08, 29.544]]], [[[-94.779, 29.549], [-94.78, 29.547], [-94.788, 29.548], [-94.779, 29.549]]], [[[-95.029, 29.554], [-95.025, 29.55], [-95.028, 29.548], [-95.029, 29.554]]], [[[-94.473, 29.546], [-94.486, 29.528], [-94.495, 29.525], [-94.473, 29.546]]], [[[-94.354, 29.611], [-94.354, 29.563], [-94.499, 29.507], [-94.46, 29.559], [-94.42, 29.567], [-94.41, 29.594], [-94.354, 29.611]]], [[[-94.998, 29.62], [-94.998, 29.62], [-94.998, 29.62], [-94.998, 29.62]]], [[[-94.948, 29.63], [-94.945, 29.613], [-94.954, 29.623], [-94.948, 29.63]]], [[[-94.931, 29.679], [-94.931, 29.674], [-94.933, 29.678], [-94.931, 29.679]]], [[[-94.974, 29.686], [-94.952, 29.632], [-94.978, 29.681], [-94.974, 29.686]]], [[[-94.991, 29.698], [-94.973, 29.69], [-94.98, 29.688], [-94.991, 29.698]]], [[[-94.936, 29.705], [-94.916, 29.698], [-94.934, 29.678], [-94.947, 29.699], [-94.936, 29.705]]], [[[-95.016, 29.721], [-95.006, 29.711], [-95.015, 29.706], [-95.016, 29.721]]], [[[-95.274, 29.723], [-95.276, 29.722], [-95.276, 29.726], [-95.274, 29.723]]], [[[-95.033, 29.727], [-95.024, 29.714], [-95.04, 29.709], [-95.033, 29.727]]], [[[-94.715, 29.733], [-94.714, 29.731], [-94.718, 29.728], [-94.715, 29.733]]], [[[-94.707, 29.74], [-94.708, 29.738], [-94.71, 29.737], [-94.707, 29.74]]], [[[-94.716, 29.76], [-94.717, 29.76], [-94.716, 29.761], [-94.716, 29.76]]], [[[-95.086, 29.803], [-95.082, 29.8], [-95.088, 29.799], [-95.086, 29.803]]], [[[-95.826, 30.628], [-95.599, 30.509], [-95.362, 30.509], [-95.308, 30.406], [-95.204, 30.352], [-95.226, 30.32], [-95.166, 30.345], [-95.031, 29.993], [-95, 29.991], [-94.982, 29.965], [-94.999, 29.92], [-94.981, 29.884], [-94.358, 29.887], [-94.354, 29.612], [-94.413, 29.595], [-94.422, 29.568], [-94.522, 29.541], [-94.559, 29.575], [-94.741, 29.527], [-94.781, 29.533], [-94.789, 29.547], [-94.761, 29.537], [-94.7, 29.646], [-94.687, 29.646], [-94.7, 29.651], [-94.689, 29.763], [-94.703, 29.743], [-94.686, 29.772], [-94.747, 29.836], [-94.763, 29.833], [-94.742, 29.832], [-94.689, 29.772], [-94.705, 29.742], [-94.693, 29.766], [-94.727, 29.763], [-94.718, 29.779], [-94.73, 29.777], [-94.726, 29.796], [-94.738, 29.79], [-94.746, 29.805], [-94.74, 29.79], [-94.815, 29.758], [-94.873, 29.672], [-94.908, 29.656], [-94.931, 29.672], [-94.916, 29.698], [-94.93, 29.697], [-94.933, 29.715], [-94.951, 29.699], [-94.989, 29.709], [-94.979, 29.75], [-94.994, 29.709], [-95.015, 29.705], [-95.002, 29.719], [-95.019, 29.72], [-95.033, 29.752], [-95.054, 29.748], [-95.057, 29.76], [-95.037, 29.764], [-95.046, 29.783], [-95.079, 29.764], [-95.056, 29.797], [-95.082, 29.816], [-95.061, 29.829], [-95.103, 29.839], [-95.094, 29.865], [-95.103, 29.838], [-95.062, 29.828], [-95.094, 29.821], [-95.095, 29.805], [-95.062, 29.793], [-95.085, 29.765], [-95.099, 29.778], [-95.066, 29.794], [-95.105, 29.785], [-95.091, 29.763], [-95.108, 29.743], [-95.152, 29.738], [-95.19, 29.769], [-95.166, 29.751], [-95.245, 29.72], [-95.296, 29.754], [-95.276, 29.721], [-95.255, 29.726], [-95.25, 29.712], [-95.175, 29.746], [-95.137, 29.728], [-95.111, 29.739], [-95.117, 29.721], [-95.081, 29.762], [-95.066, 29.747], [-95.087, 29.755], [-95.077, 29.742], [-95.048, 29.73], [-95.055, 29.708], [-95.02, 29.703], [-95.023, 29.683], [-95.02, 29.702], [-94.99, 29.686], [-95.008, 29.68], [-94.983, 29.682], [-95.02, 29.646], [-94.997, 29.615], [-95.025, 29.608], [-94.983, 29.601], [-95.018, 29.549], [-95.032, 29.57], [-95.035, 29.558], [-95.056, 29.564], [-95.042, 29.603], [-95.018, 29.618], [-95.032, 29.617], [-95.059, 29.607], [-95.044, 29.599], [-95.054, 29.566], [-95.071, 29.563], [-95.067, 29.581], [-95.09, 29.586], [-95.067, 29.581], [-95.082, 29.571], [-95.08, 29.535], [-95.109, 29.552], [-95.096, 29.537], [-95.103, 29.522], [-95.095, 29.536], [-95.079, 29.524], [-95.078, 29.545], [-95.072, 29.533], [-95.076, 29.545], [-95.051, 29.555], [-95.055, 29.542], [-95.03, 29.552], [-95.035, 29.534], [-95.017, 29.548], [-94.96, 29.507], [-94.981, 29.489], [-94.958, 29.507], [-94.91, 29.497], [-94.925, 29.471], [-94.938, 29.484], [-94.978, 29.454], [-95.013, 29.47], [-95.04, 29.457], [-94.998, 29.461], [-94.989, 29.439], [-94.951, 29.467], [-94.918, 29.446], [-94.949, 29.433], [-94.946, 29.414], [-94.902, 29.425], [-94.917, 29.446], [-94.892, 29.434], [-94.892, 29.364], [-94.919, 29.362], [-94.891, 29.36], [-94.882, 29.378], [-94.864, 29.371], [-94.892, 29.357], [-94.904, 29.3], [-94.943, 29.318], [-94.931, 29.327], [-94.947, 29.324], [-94.937, 29.331], [-94.948, 29.341], [-94.993, 29.352], [-94.948, 29.336], [-94.944, 29.306], [-94.954, 29.295], [-95.009, 29.309], [-95.018, 29.326], [-95.01, 29.308], [-94.954, 29.293], [-94.992, 29.266], [-94.981, 29.286], [-94.996, 29.289], [-94.984, 29.295], [-95.021, 29.29], [-95.031, 29.276], [-94.995, 29.262], [-95.014, 29.243], [-95.037, 29.257], [-95.034, 29.236], [-95.014, 29.246], [-95.024, 29.235], [-95.038, 29.244], [-95.025, 29.234], [-95.036, 29.214], [-95.1, 29.176], [-95.061, 29.202], [-95.077, 29.217], [-95.095, 29.201], [-95.082, 29.233], [-95.108, 29.195], [-95.147, 29.211], [-95.136, 29.191], [-95.168, 29.213], [-95.168, 29.202], [-95.209, 29.213], [-95.244, 29.273], [-95.219, 29.239], [-95.224, 29.22], [-95.15, 29.182], [-95.185, 29.162], [-95.153, 29.174], [-95.16, 29.145], [-95.21, 29.096], [-95.246, 29.085], [-95.203, 29.098], [-95.235, 29.021], [-95.296, 28.955], [-95.309, 28.967], [-95.306, 28.946], [-95.389, 28.997], [-95.307, 28.947], [-95.327, 28.935], [-95.328, 28.951], [-95.373, 28.963], [-95.329, 28.949], [-95.342, 28.938], [-95.329, 28.933], [-95.312, 28.942], [-95.382, 28.897], [-95.374, 28.968], [-95.386, 28.98], [-95.367, 28.988], [-95.327, 28.952], [-95.367, 28.988], [-95.403, 28.975], [-95.436, 29.003], [-95.418, 28.979], [-95.376, 28.967], [-95.387, 28.897], [-95.443, 28.872], [-95.495, 28.906], [-95.531, 28.907], [-95.553, 28.944], [-95.531, 28.906], [-95.495, 28.905], [-95.446, 28.873], [-95.509, 28.847], [-95.51, 28.867], [-95.541, 28.854], [-95.554, 28.864], [-95.52, 28.856], [-95.528, 28.842], [-95.51, 28.846], [-95.534, 28.831], [-95.573, 28.833], [-95.576, 28.858], [-95.642, 28.904], [-95.646, 28.939], [-95.675, 28.964], [-95.769, 28.971], [-95.786, 29.039], [-95.765, 29.061], [-95.846, 29.107], [-95.838, 29.177], [-95.858, 29.193], [-95.845, 29.205], [-95.874, 29.23], [-95.842, 29.26], [-95.879, 29.266], [-95.894, 29.315], [-95.95, 29.336], [-95.937, 29.359], [-95.968, 29.384], [-95.972, 29.411], [-95.992, 29.434], [-96.035, 29.443], [-96.03, 29.452], [-96.06, 29.474], [-96.06, 29.492], [-96.022, 29.502], [-96.054, 29.512], [-96.045, 29.562], [-96.062, 29.591], [-96.089, 29.602], [-96.025, 29.603], [-96.015, 29.642], [-96.033, 29.658], [-96.017, 29.667], [-96.06, 29.679], [-96.017, 29.68], [-96.023, 29.705], [-96.005, 29.709], [-96.033, 29.718], [-96.047, 29.801], [-96.103, 29.81], [-96.098, 29.827], [-96.121, 29.837], [-96.101, 29.853], [-96.112, 29.873], [-96.092, 29.882], [-96.126, 29.898], [-96.113, 29.914], [-96.131, 29.939], [-96.101, 29.944], [-96.126, 29.965], [-96.093, 29.961], [-96.105, 29.996], [-96.085, 30.005], [-96.097, 30.028], [-96.113, 30.027], [-96.115, 30.049], [-96.146, 30.064], [-96.151, 30.076], [-96.134, 30.071], [-96.158, 30.092], [-96.154, 30.108], [-96.171, 30.099], [-96.192, 30.115], [-96.179, 30.12], [-96.192, 30.138], [-96.172, 30.14], [-96.181, 30.156], [-96.153, 30.143], [-96.159, 30.205], [-96.146, 30.218], [-95.804, 30.246], [-95.826, 30.628]]]]}}, {"type": "Feature", "properties": {"code": "LZ_NORTH"}, "geometry": {"type": "Polygon", "coordinates": [[[-97.668, 33.991], [-97.59, 33.954], [-97.597, 33.916], [-97.581, 33.9], [-97.5, 33.92], [-97.46, 33.904], [-97.451, 33.871], [-97.463, 33.842], [-97.427, 33.819], [-97.369, 33.821], [-97.332, 33.884], [-97.332, 33.855], [-97.31, 33.889], [-97.276, 33.858], [-97.256, 33.864], [-97.242, 33.906], [-97.206, 33.914], [-97.181, 33.895], [-97.167, 33.847], [-97.205, 33.819], [-97.193, 33.76], [-97.126, 33.717], [-97.086, 33.744], [-97.092, 33.804], [-97.048, 33.817], [-97.087, 33.853], [-97.024, 33.844], [-96.984, 33.891], [-96.994, 33.949], [-96.979, 33.956], [-96.973, 33.936], [-96.922, 33.96], [-96.871, 33.857], [-96.851, 33.847], [-96.832, 33.875], [-96.794, 33.869], [-96.765, 33.825], [-96.701, 33.838], [-96.667, 33.917], [-96.628, 33.894], [-96.588, 33.895], [-96.629, 33.845], [-96.573, 33.819], [-96.526, 33.82], [-96.501, 33.773], [-96.423, 33.776], [-96.349, 33.686], [-96.317, 33.699], [-96.294, 33.769], [-96.221, 33.747], [-96.178, 33.761], [-96.156, 33.814], [-96.17, 33.801], [-96.179, 33.811], [-96.151, 33.817], [-96.148, 33.838], [-96.099, 33.83], [-96.1, 33.848], [-96.049, 33.836], [-96.024, 33.857], [-96.02, 33.841], [-95.996, 33.856], [-96.003, 33.872], [-95.985, 33.852], [-95.951, 33.857], [-95.93, 33.885], [-95.838, 33.836], [-95.805, 33.861], [-95.77, 33.845], [-95.752, 33.856], [-95.756, 33.892], [-95.698, 33.886], [-95.665, 33.909], [-95.629, 33.906], [-95.594, 33.943], [-95.554, 33.927], [-95.545, 33.88], [-95.51, 33.898], [-95.505, 33.876], [-95.462, 33.887], [-95.463, 33.872], [-95.443, 33.867], [-95.363, 33.867], [-95.327, 33.886], [-95.289, 33.873], [-95.283, 33.907], [-95.253, 33.894], [-95.25, 33.939], [-95.218, 33.963], [-95.125, 33.935], [-95.122, 33.905], [-95.082, 33.922], [-95.1, 33.896], [-95.09, 33.881], [-95.066, 33.916], [-95.076, 33.902], [-95.06, 33.902], [-95.047, 33.863], [-94.988, 33.851], [-94.969, 33.861], [-94.964, 33.837], [-94.944, 33.829], [-94.948, 33.808], [-94.923, 33.809], [-94.917, 33.826], [-94.922, 33.79], [-94.876, 33.757], [-94.868, 33.769], [-94.868, 33.745], [-94.822, 33.733], [-94.822, 33.769], [-94.803, 33.733], [-94.76, 33.758], [-94.789, 33.736], [-94.752, 33.734], [-94.751, 33.714], [-94.732, 33.723], [-94.754, 33.709], [-94.747, 33.329], [-94.781, 33.319], [-94.782, 33.344], [-94.808, 33.366], [-94.82, 32.983], [-94.939, 33.075], [-95.04, 33.072], [-95.147, 33.021], [-95.153, 32.57], [-95.119, 32.543], [-95.093, 32.558], [-95.075, 32.537], [-95.041, 32.532], [-95.021, 32.547], [-95.012, 32.516], [-94.987, 32.537], [-94.986, 32.371], [-94.601, 32.36], [-94.556, 32.408], [-94.515, 32.387], [-94.492, 32.394], [-94.527, 32.278], [-94.58, 32.203], [-94.602, 32.08], [-94.6, 31.973], [-94.511, 31.974], [-94.511, 31.924], [-94.481, 31.902], [-94.424, 31.8], [-94.432, 31.775], [-94.412, 31.746], [-94.417, 31.706], [-94.395, 31.639], [-94.375, 31.639], [-94.35, 31.606], [-94.311, 31.589], [-94.3, 31.527], [-94.325, 31.439], [-94.305, 31.422], [-94.327, 31.399], [-94.315, 31.308], [-94.34, 31.241], [-94.262, 31.18], [-94.219, 31.173], [-94.193, 31.135], [-94.13, 31.099], [-94.473, 31.026], [-94.492, 31.045], [-94.599, 31.069], [-94.648, 31.099], [-94.658, 31.085], [-94.751, 31.105], [-94.857, 31.15], [-94.861, 31.235], [-94.898, 31.258], [-94.878, 31.288], [-94.895, 31.292], [-94.909, 31.337], [-94.958, 31.343], [-94.958, 31.387], [-95.617, 30.931], [-95.63, 30.9], [-95.716, 30.911], [-95.829, 30.862], [-95.862, 30.865], [-95.817, 30.499], [-95.804, 30.246], [-96.093, 30.225], [-96.103, 30.239], [-96.081, 30.244], [-96.099, 30.255], [-96.084, 30.285], [-96.1, 30.292], [-96.094, 30.309], [-96.12, 30.305], [-96.153, 30.328], [-96.15, 30.369], [-96.176, 30.376], [-96.178, 30.394], [-96.196, 30.4], [-96.21, 30.374], [-96.27, 30.358], [-96.299, 30.378], [-96.299, 30.411], [-96.272, 30.417], [-96.287, 30.418], [-96.285, 30.448], [-96.321, 30.45], [-96.342, 30.497], [-96.371, 30.513], [-96.355, 30.522], [-96.359, 30.543], [-96.413, 30.54], [-96.421, 30.585], [-96.43, 30.591], [-96.437, 30.574], [-96.452, 30.597], [-96.488, 30.605], [-96.489, 30.622], [-96.5, 30.613], [-96.511, 30.628], [-96.602, 30.64], [-96.568, 30.7], [-96.633, 30.741], [-96.613, 30.759], [-96.625, 30.781], [-96.648, 30.781], [-96.641, 30.818], [-96.695, 30.865], [-96.682, 30.882], [-96.697, 30.898], [-96.685, 30.906], [-96.726, 30.899], [-96.757, 30.928], [-96.772, 30.969], [-96.746, 31], [-96.771, 31.002], [-96.78, 31.033], [-96.768, 31.049], [-96.792, 31.065], [-96.82, 31.061], [-96.809, 31.08], [-96.83, 31.11], [-97.07, 30.986], [-97.278, 31.28], [-97.343, 31.244], [-97.419, 31.32], [-97.907, 31.069], [-98.18, 31.464], [-98.563, 31.23], [-98.58, 31.265], [-98.596, 31.253], [-98.628, 31.274], [-98.598, 31.287], [-98.587, 31.325], [-98.648, 31.315], [-98.636, 31.353], [-98.653, 31.37], [-98.703, 31.339], [-98.713, 31.355], [-98.695, 31.406], [-98.725, 31.408], [-98.726, 31.428], [-98.743, 31.428], [-98.764, 31.375], [-98.779, 31.379], [-98.775, 31.413], [-98.847, 31.411], [-98.873, 31.444], [-98.925, 31.434], [-98.944, 31.459], [-98.967, 31.435], [-98.965, 31.453], [-98.995, 31.466], [-98.991, 31.484], [-99.019, 31.47], [-99.041, 31.491], [-99.096, 31.448], [-99.116, 31.468], [-99.184, 31.454], [-99.189, 31.471], [-99.203, 31.467], [-99.196, 32.079], [-98.924, 32.078], [-98.475, 32.299], [-98.475, 32.513], [-98.576, 32.515], [-98.576, 32.954], [-98.427, 32.952], [-98.421, 33.467], [-97.979, 33.467], [-97.978, 33.89], [-97.875, 33.85], [-97.834, 33.858], [-97.798, 33.899], [-97.782, 33.892], [-97.784, 33.918], [-97.764, 33.914], [-97.763, 33.934], [-97.732, 33.937], [-97.693, 33.984], [-97.668, 33.991]]]}}, {"type": "Feature", "properties": {"code": "LZ_SOUTH"}, "geometry": {"type": "MultiPolygon", "coordinates": [[[[-97.22, 25.997], [-97.228, 25.998], [-97.221, 26.003], [-97.22, 25.997]]], [[[-97.215, 26.013], [-97.215, 26.007], [-97.222, 26.009], [-97.215, 26.013]]], [[[-97.226, 26.013], [-97.231, 26.01], [-97.232, 26.015], [-97.226, 26.013]]], [[[-97.158, 26.018], [-97.159, 26.023], [-97.157, 26.021], [-97.158, 26.018]]], [[[-97.189, 26.044], [-97.226, 26.024], [-97.238, 26.024], [-97.189, 26.044]]], [[[-97.161, 26.049], [-97.168, 26.035], [-97.167, 26.046], [-97.161, 26.049]]], [[[-97.203, 26.059], [-97.209, 26.063], [-97.208, 26.063], [-97.203, 26.059]]], [[[-97.203, 26.06], [-97.208, 26.064], [-97.208, 26.064], [-97.203, 26.06]]], [[[-97.194, 26.071], [-97.204, 26.048], [-97.209, 26.063], [-97.194, 26.071]]], [[[-97.207, 26.079], [-97.209, 26.067], [-97.219, 26.078], [-97.207, 26.079]]], [[[-97.303, 26.159], [-97.295, 26.155], [-97.305, 26.157], [-97.303, 26.159]]], [[[-97.179, 26.18], [-97.179, 26.181], [-97.179, 26.18], [-97.179, 26.18]]], [[[-97.182, 26.193], [-97.182, 26.196], [-97.181, 26.195], [-97.182, 26.193]]], [[[-97.185, 26.22], [-97.184, 26.214], [-97.187, 26.22], [-97.185, 26.22]]], [[[-97.292, 26.281], [-97.296, 26.276], [-97.295, 26.281], [-97.292, 26.281]]], [[[-97.283, 26.281], [-97.281, 26.279], [-97.288, 26.28], [-97.283, 26.281]]], [[[-97.303, 26.298], [-97.299, 26.293], [-97.305, 26.287], [-97.303, 26.298]]], [[[-97.337, 26.308], [-97.339, 26.309], [-97.333, 26.314], [-97.337, 26.308]]], [[[-97.326, 26.327], [-97.335, 26.324], [-97.327, 26.332], [-97.326, 26.327]]], [[[-97.372, 26.351], [-97.379, 26.352], [-97.363, 26.355], [-97.372, 26.351]]], [[[-97.407, 26.358], [-97.41, 26.356], [-97.414, 26.357], [-97.407, 26.358]]], [[[-97.432, 26.366], [-97.434, 26.364], [-97.436, 26.366], [-97.432, 26.366]]], [[[-97.397, 26.374], [-97.422, 26.359], [-97.408, 26.351], [-97.389, 26.364], [-97.391, 26.351], [-97.436, 26.339], [-97.43, 26.364], [-97.397, 26.374]]], [[[-97.331, 26.364], [-97.39, 26.351], [-97.335, 26.376], [-97.331, 26.364]]], [[[-97.408, 26.375], [-97.404, 26.37], [-97.407, 26.379], [-97.408, 26.375]]], [[[-97.416, 26.372], [-97.416, 26.374], [-97.409, 26.379], [-97.416, 26.372]]], [[[-97.391, 26.38], [-97.386, 26.368], [-97.395, 26.371], [-97.391, 26.38]]], [[[-97.399, 26.381], [-97.4, 26.378], [-97.406, 26.378], [-97.399, 26.381]]], [[[-97.412, 26.378], [-97.436, 26.368], [-97.436, 26.378], [-97.412, 26.378]]], [[[-97.382, 26.383], [-97.38, 26.376], [-97.386, 26.371], [-97.382, 26.383]]], [[[-97.226, 26.392], [-97.225, 26.39], [-97.227, 26.387], [-97.226, 26.392]]], [[[-97.382, 26.39], [-97.38, 26.384], [-97.392, 26.389], [-97.382, 26.39]]], [[[-97.375, 26.391], [-97.373, 26.38], [-97.379, 26.385], [-97.375, 26.391]]], [[[-97.4, 26.396], [-97.411, 26.379], [-97.412, 26.392], [-97.4, 26.396]]], [[[-97.388, 26.396], [-97.382, 26.392], [-97.399, 26.389], [-97.388, 26.396]]], [[[-97.231, 26.4], [-97.233, 26.397], [-97.235, 26.4], [-97.231, 26.4]]], [[[-97.398, 26.398], [-97.398, 26.401], [-97.396, 26.405], [-97.398, 26.398]]], [[[-97.402, 26.396], [-97.401, 26.403], [-97.398, 26.405], [-97.402, 26.396]]], [[[-97.378, 26.409], [-97.375, 26.397], [-97.398, 26.395], [-97.378, 26.409]]], [[[-97.435, 26.417], [-97.433, 26.415], [-97.439, 26.411], [-97.435, 26.417]]], [[[-97.392, 26.423], [-97.391, 26.419], [-97.396, 26.422], [-97.392, 26.423]]], [[[-97.251, 26.424], [-97.254, 26.415], [-97.258, 26.426], [-97.251, 26.424]]], [[[-97.392, 26.431], [-97.392, 26.426], [-97.397, 26.43], [-97.392, 26.431]]], [[[-97.421, 26.432], [-97.428, 26.431], [-97.426, 26.434], [-97.421, 26.432]]], [[[-97.415, 26.449], [-97.414, 26.432], [-97.429, 26.436], [-97.415, 26.449]]], [[[-97.421, 26.454], [-97.422, 26.446], [-97.428, 26.449], [-97.421, 26.454]]], [[[-97.405, 26.46], [-97.406, 26.45], [-97.41, 26.452], [-97.405, 26.46]]], [[[-97.439, 26.462], [-97.43, 26.458], [-97.444, 26.459], [-97.439, 26.462]]], [[[-97.429, 26.471], [-97.428, 26.461], [-97.439, 26.46], [-97.429, 26.471]]], [[[-97.403, 26.471], [-97.405, 26.464], [-97.407, 26.466], [-97.403, 26.471]]], [[[-97.418, 26.471], [-97.425, 26.467], [-97.421, 26.472], [-97.418, 26.471]]], [[[-97.254, 26.482], [-97.254, 26.48], [-97.258, 26.482], [-97.254, 26.482]]], [[[-97.419, 26.48], [-97.423, 26.481], [-97.42, 26.483], [-97.419, 26.48]]], [[[-97.261, 26.491], [-97.259, 26.491], [-97.262, 26.491], [-97.261, 26.491]]], [[[-97.424, 26.506], [-97.422, 26.502], [-97.426, 26.505], [-97.424, 26.506]]], [[[-97.269, 26.508], [-97.27, 26.509], [-97.269, 26.509], [-97.269, 26.508]]], [[[-97.412, 26.509], [-97.407, 26.494], [-97.414, 26.486], [-97.412, 26.509]]], [[[-97.42, 26.512], [-97.419, 26.508], [-97.427, 26.509], [-97.42, 26.512]]], [[[-97.266, 26.516], [-97.271, 26.51], [-97.272, 26.514], [-97.266, 26.516]]], [[[-97.265, 26.519], [-97.268, 26.519], [-97.266, 26.521], [-97.265, 26.519]]], [[[-97.417, 26.519], [-97.415, 26.514], [-97.416, 26.511], [-97.417, 26.519]]], [[[-97.418, 26.521], [-97.418, 26.52], [-97.418, 26.521], [-97.418, 26.521]]], [[[-97.428, 26.53], [-97.425, 26.525], [-97.432, 26.525], [-97.428, 26.53]]], [[[-97.431, 26.542], [-97.429, 26.538], [-97.435, 26.537], [-97.431, 26.542]]], [[[-97.357, 26.558], [-97.357, 26.556], [-97.36, 26.557], [-97.357, 26.558]]], [[[-97.35, 26.557], [-97.354, 26.558], [-97.351, 26.559], [-97.35, 26.557]]], [[[-97.343, 26.56], [-97.346, 26.556], [-97.349, 26.558], [-97.343, 26.56]]], [[[-97.337, 26.557], [-97.34, 26.56], [-97.337, 26.56], [-97.337, 26.557]]], [[[-97.333, 26.557], [-97.336, 26.56], [-97.334, 26.56], [-97.333, 26.557]]], [[[-97.279, 26.563], [-97.202, 26.325], [-97.154, 26.068], [-97.169, 26.078], [-97.191, 26.275], [-97.226, 26.411], [-97.242, 26.408], [-97.235, 26.439], [-97.247, 26.441], [-97.257, 26.508], [-97.268, 26.506], [-97.262, 26.522], [-97.274, 26.519], [-97.288, 26.549], [-97.332, 26.559], [-97.279, 26.563]]], [[[-97.3, 26.588], [-97.302, 26.591], [-97.3, 26.59], [-97.3, 26.588]]], [[[-97.304, 26.595], [-97.305, 26.596], [-97.303, 26.595], [-97.304, 26.595]]], [[[-97.296, 26.598], [-97.302, 26.592], [-97.301, 26.597], [-97.296, 26.598]]], [[[-97.304, 26.6], [-97.304, 26.598], [-97.307, 26.6], [-97.304, 26.6]]], [[[-97.443, 26.599], [-97.437, 26.595], [-97.443, 26.594], [-97.443, 26.599]]], [[[-97.442, 26.601], [-97.441, 26.6], [-97.441, 26.6], [-97.442, 26.601]]], [[[-97.305, 26.629], [-97.306, 26.633], [-97.304, 26.631], [-97.305, 26.629]]], [[[-97.326, 26.666], [-97.3, 26.6], [-97.329, 26.647], [-97.326, 26.666]]], [[[-97.339, 26.695], [-97.327, 26.667], [-97.336, 26.669], [-97.339, 26.695]]], [[[-97.35, 26.725], [-97.342, 26.7], [-97.356, 26.724], [-97.35, 26.725]]], [[[-97.417, 26.743], [-97.416, 26.741], [-97.423, 26.741], [-97.417, 26.743]]], [[[-97.415, 26.747], [-97.415, 26.753], [-97.413, 26.752], [-97.415, 26.747]]], [[[-97.374, 26.791], [-97.377, 26.781], [-97.379, 26.787], [-97.374, 26.791]]], [[[-97.477, 26.791], [-97.475, 26.768], [-97.479, 26.784], [-97.477, 26.791]]], [[[-97.378, 26.801], [-97.378, 26.796], [-97.381, 26.8], [-97.378, 26.801]]], [[[-97.481, 26.792], [-97.488, 26.804], [-97.484, 26.811], [-97.481, 26.792]]], [[[-97.483, 26.82], [-97.471, 26.816], [-97.495, 26.819], [-97.483, 26.82]]], [[[-97.504, 26.819], [-97.515, 26.815], [-97.511, 26.821], [-97.504, 26.819]]], [[[-97.462, 26.825], [-97.468, 26.81], [-97.468, 26.825], [-97.462, 26.825]]], [[[-97.47, 26.829], [-97.47, 26.827], [-97.473, 26.827], [-97.47, 26.829]]], [[[-97.455, 26.832], [-97.413, 26.817], [-97.46, 26.824], [-97.455, 26.832]]], [[[-97.544, 26.833], [-97.547, 26.833], [-97.543, 26.834], [-97.544, 26.833]]], [[[-97.469, 26.836], [-97.469, 26.832], [-97.469, 26.834], [-97.469, 26.836]]], [[[-97.469, 26.841], [-97.47, 26.841], [-97.468, 26.843], [-97.469, 26.841]]], [[[-97.47, 26.842], [-97.469, 26.837], [-97.486, 26.84], [-97.47, 26.842]]], [[[-97.497, 26.845], [-97.495, 26.843], [-97.497, 26.843], [-97.497, 26.845]]], [[[-97.494, 26.846], [-97.492, 26.842], [-97.497, 26.848], [-97.494, 26.846]]], [[[-97.516, 26.843], [-97.492, 26.84], [-97.516, 26.848], [-97.516, 26.843]]], [[[-97.501, 26.847], [-97.501, 26.848], [-97.5, 26.848], [-97.501, 26.847]]], [[[-97.484, 26.849], [-97.481, 26.847], [-97.484, 26.846], [-97.484, 26.849]]], [[[-97.463, 26.827], [-97.467, 26.828], [-97.465, 26.85], [-97.463, 26.827]]], [[[-97.493, 26.85], [-97.486, 26.849], [-97.488, 26.848], [-97.493, 26.85]]], [[[-97.507, 26.851], [-97.507, 26.848], [-97.515, 26.85], [-97.507, 26.851]]], [[[-97.504, 26.852], [-97.503, 26.851], [-97.505, 26.852], [-97.504, 26.852]]], [[[-97.52, 26.853], [-97.516, 26.853], [-97.518, 26.85], [-97.52, 26.853]]], [[[-97.5, 26.851], [-97.499, 26.849], [-97.504, 26.854], [-97.5, 26.851]]], [[[-97.479, 26.854], [-97.479, 26.85], [-97.482, 26.85], [-97.479, 26.854]]], [[[-97.486, 26.855], [-97.481, 26.853], [-97.486, 26.852], [-97.486, 26.855]]], [[[-97.469, 26.856], [-97.468, 26.85], [-97.475, 26.847], [-97.469, 26.856]]], [[[-97.549, 26.86], [-97.536, 26.856], [-97.556, 26.857], [-97.549, 26.86]]], [[[-97.507, 26.861], [-97.499, 26.856], [-97.502, 26.855], [-97.507, 26.861]]], [[[-97.474, 26.865], [-97.471, 26.857], [-97.475, 26.857], [-97.474, 26.865]]], [[[-97.487, 26.863], [-97.488, 26.858], [-97.493, 26.866], [-97.487, 26.863]]], [[[-97.483, 26.867], [-97.481, 26.864], [-97.486, 26.867], [-97.483, 26.867]]], [[[-97.476, 26.873], [-97.474, 26.868], [-97.477, 26.87], [-97.476, 26.873]]], [[[-97.454, 26.878], [-97.454, 26.876], [-97.457, 26.876], [-97.454, 26.878]]], [[[-97.478, 26.878], [-97.474, 26.873], [-97.477, 26.873], [-97.478, 26.878]]], [[[-97.461, 26.852], [-97.464, 26.853], [-97.459, 26.879], [-97.461, 26.852]]], [[[-97.446, 26.88], [-97.41, 26.874], [-97.448, 26.874], [-97.446, 26.88]]], [[[-97.52, 26.881], [-97.489, 26.86], [-97.508, 26.862], [-97.52, 26.881]]], [[[-97.479, 26.881], [-97.482, 26.884], [-97.48, 26.884], [-97.479, 26.881]]], [[[-97.495, 26.886], [-97.496, 26.884], [-97.5, 26.887], [-97.495, 26.886]]], [[[-97.479, 26.889], [-97.476, 26.886], [-97.477, 26.883], [-97.479, 26.889]]], [[[-97.516, 26.89], [-97.491, 26.88], [-97.49, 26.872], [-97.516, 26.89]]], [[[-97.473, 26.891], [-97.47, 26.878], [-97.477, 26.883], [-97.473, 26.891]]], [[[-97.467, 26.854], [-97.467, 26.863], [-97.462, 26.893], [-97.467, 26.854]]], [[[-97.499, 26.891], [-97.496, 26.887], [-97.5, 26.888], [-97.499, 26.891]]], [[[-97.501, 26.888], [-97.507, 26.891], [-97.503, 26.893], [-97.501, 26.888]]], [[[-97.482, 26.898], [-97.481, 26.896], [-97.486, 26.9], [-97.482, 26.898]]], [[[-97.389, 26.901], [-97.392, 26.904], [-97.388, 26.903], [-97.389, 26.901]]], [[[-97.513, 26.902], [-97.514, 26.899], [-97.517, 26.903], [-97.513, 26.902]]], [[[-97.491, 26.903], [-97.483, 26.89], [-97.495, 26.901], [-97.491, 26.903]]], [[[-97.509, 26.907], [-97.507, 26.905], [-97.51, 26.904], [-97.509, 26.907]]], [[[-97.503, 26.909], [-97.494, 26.905], [-97.5, 26.906], [-97.503, 26.909]]], [[[-97.439, 26.913], [-97.454, 26.911], [-97.453, 26.917], [-97.439, 26.913]]], [[[-97.531, 26.917], [-97.518, 26.91], [-97.527, 26.911], [-97.531, 26.917]]], [[[-97.465, 26.921], [-97.461, 26.92], [-97.466, 26.918], [-97.465, 26.921]]], [[[-97.387, 26.922], [-97.378, 26.903], [-97.383, 26.897], [-97.387, 26.922]]], [[[-97.472, 26.926], [-97.469, 26.922], [-97.472, 26.923], [-97.472, 26.926]]], [[[-97.452, 26.924], [-97.452, 26.927], [-97.452, 26.926], [-97.452, 26.924]]], [[[-97.458, 26.885], [-97.461, 26.88], [-97.456, 26.928], [-97.458, 26.885]]], [[[-97.509, 26.929], [-97.511, 26.926], [-97.515, 26.927], [-97.509, 26.929]]], [[[-97.469, 26.94], [-97.468, 26.928], [-97.477, 26.937], [-97.469, 26.94]]], [[[-97.464, 26.941], [-97.458, 26.941], [-97.459, 26.925], [-97.464, 26.941]]], [[[-97.386, 26.947], [-97.385, 26.944], [-97.391, 26.944], [-97.386, 26.947]]], [[[-97.492, 26.947], [-97.471, 26.943], [-97.488, 26.94], [-97.492, 26.947]]], [[[-97.454, 26.937], [-97.456, 26.932], [-97.453, 26.95], [-97.454, 26.937]]], [[[-97.466, 26.955], [-97.457, 26.954], [-97.46, 26.951], [-97.466, 26.955]]], [[[-97.452, 26.93], [-97.451, 26.957], [-97.448, 26.954], [-97.452, 26.93]]], [[[-97.461, 26.958], [-97.459, 26.956], [-97.463, 26.958], [-97.461, 26.958]]], [[[-97.453, 26.955], [-97.453, 26.957], [-97.452, 26.96], [-97.453, 26.955]]], [[[-97.557, 26.97], [-97.546, 26.961], [-97.553, 26.961], [-97.557, 26.97]]], [[[-97.455, 26.976], [-97.454, 26.972], [-97.457, 26.972], [-97.455, 26.976]]], [[[-97.537, 26.978], [-97.537, 26.976], [-97.54, 26.974], [-97.537, 26.978]]], [[[-97.483, 26.981], [-97.478, 26.972], [-97.485, 26.974], [-97.483, 26.981]]], [[[-97.448, 26.959], [-97.45, 26.982], [-97.443, 26.983], [-97.448, 26.959]]], [[[-97.493, 26.984], [-97.492, 26.979], [-97.495, 26.981], [-97.493, 26.984]]], [[[-97.506, 26.985], [-97.498, 26.985], [-97.496, 26.981], [-97.506, 26.985]]], [[[-97.475, 26.988], [-97.477, 26.983], [-97.482, 26.984], [-97.475, 26.988]]], [[[-97.551, 26.994], [-97.55, 26.992], [-97.555, 26.992], [-97.551, 26.994]]], [[[-97.498, 27], [-97.488, 26.999], [-97.482, 26.993], [-97.498, 27]]], [[[-97.468, 27.005], [-97.468, 26.999], [-97.47, 27.006], [-97.468, 27.005]]], [[[-97.476, 27.009], [-97.472, 27.005], [-97.475, 27.006], [-97.476, 27.009]]], [[[-97.477, 27.024], [-97.472, 27.019], [-97.476, 27.02], [-97.477, 27.024]]], [[[-97.466, 27.041], [-97.456, 27.004], [-97.47, 27.011], [-97.466, 27.041]]], [[[-97.482, 27.057], [-97.478, 27.055], [-97.483, 27.053], [-97.482, 27.057]]], [[[-97.467, 27.066], [-97.463, 27.044], [-97.473, 27.042], [-97.467, 27.066]]], [[[-97.423, 27.072], [-97.424, 27.072], [-97.423, 27.073], [-97.423, 27.072]]], [[[-97.427, 27.072], [-97.428, 27.073], [-97.427, 27.073], [-97.427, 27.072]]], [[[-97.433, 27.074], [-97.449, 26.985], [-97.443, 27.075], [-97.433, 27.074]]], [[[-97.479, 27.076], [-97.477, 27.076], [-97.48, 27.072], [-97.479, 27.076]]], [[[-97.454, 27.055], [-97.457, 27.061], [-97.452, 27.086], [-97.454, 27.055]]], [[[-97.485, 27.094], [-97.467, 27.089], [-97.477, 27.088], [-97.485, 27.094]]], [[[-97.491, 27.094], [-97.497, 27.092], [-97.495, 27.094], [-97.491, 27.094]]], [[[-97.456, 27.091], [-97.459, 27.092], [-97.457, 27.099], [-97.456, 27.091]]], [[[-97.453, 27.117], [-97.453, 27.115], [-97.455, 27.115], [-97.453, 27.117]]], [[[-97.392, 27.125], [-97.39, 27.118], [-97.392, 27.114], [-97.392, 27.125]]], [[[-97.451, 27.144], [-97.449, 27.143], [-97.451, 27.142], [-97.451, 27.144]]], [[[-97.447, 27.144], [-97.447, 27.142], [-97.448, 27.143], [-97.447, 27.144]]], [[[-97.447, 27.147], [-97.449, 27.146], [-97.447, 27.15], [-97.447, 27.147]]], [[[-97.448, 27.153], [-97.449, 27.151], [-97.451, 27.153], [-97.448, 27.153]]], [[[-97.444, 27.153], [-97.451, 27.09], [-97.451, 27.128], [-97.444, 27.153]]], [[[-97.449, 27.159], [-97.448, 27.151], [-97.452, 27.157], [-97.449, 27.159]]], [[[-97.436, 27.141], [-97.442, 27.077], [-97.439, 27.14], [-97.436, 27.141]]], [[[-97.441, 27.177], [-97.445, 27.153], [-97.446, 27.157], [-97.441, 27.177]]], [[[-97.405, 27.29], [-97.405, 27.292], [-97.403, 27.292], [-97.405, 27.29]]], [[[-97.401, 27.308], [-97.404, 27.294], [-97.404, 27.302], [-97.401, 27.308]]], [[[-97.4, 27.309], [-97.4, 27.308], [-97.402, 27.31], [-97.4, 27.309]]], [[[-97.401, 27.321], [-97.406, 27.314], [-97.402, 27.324], [-97.401, 27.321]]], [[[-97.526, 27.351], [-97.527, 27.35], [-97.529, 27.351], [-97.526, 27.351]]], [[[-97.482, 27.37], [-97.482, 27.37], [-97.482, 27.37], [-97.482, 27.37]]], [[[-97.528, 27.427], [-97.523, 27.42], [-97.526, 27.422], [-97.528, 27.427]]], [[[-97.364, 27.452], [-97.364, 27.451], [-97.364, 27.452], [-97.364, 27.452]]], [[[-97.364, 27.453], [-97.364, 27.452], [-97.364, 27.452], [-97.364, 27.453]]], [[[-97.316, 27.48], [-97.32, 27.478], [-97.316, 27.484], [-97.316, 27.48]]], [[[-97.314, 27.484], [-97.316, 27.486], [-97.314, 27.488], [-97.314, 27.484]]], [[[-97.312, 27.488], [-97.313, 27.49], [-97.312, 27.49], [-97.312, 27.488]]], [[[-97.31, 27.489], [-97.304, 27.495], [-97.305, 27.492], [-97.31, 27.489]]], [[[-97.317, 27.495], [-97.318, 27.495], [-97.316, 27.497], [-97.317, 27.495]]], [[[-97.315, 27.498], [-97.316, 27.499], [-97.314, 27.501], [-97.315, 27.498]]], [[[-97.313, 27.502], [-97.314, 27.505], [-97.311, 27.507], [-97.313, 27.502]]], [[[-97.303, 27.506], [-97.304, 27.507], [-97.303, 27.509], [-97.303, 27.506]]], [[[-97.301, 27.509], [-97.303, 27.51], [-97.3, 27.515], [-97.301, 27.509]]], [[[-97.299, 27.516], [-97.3, 27.516], [-97.299, 27.518], [-97.299, 27.516]]], [[[-97.295, 27.521], [-97.298, 27.518], [-97.296, 27.523], [-97.295, 27.521]]], [[[-97.29, 27.519], [-97.292, 27.519], [-97.29, 27.524], [-97.29, 27.519]]], [[[-97.294, 27.523], [-97.296, 27.524], [-97.293, 27.528], [-97.294, 27.523]]], [[[-97.289, 27.533], [-97.293, 27.528], [-97.289, 27.538], [-97.289, 27.533]]], [[[-97.284, 27.543], [-97.286, 27.539], [-97.285, 27.545], [-97.284, 27.543]]], [[[-97.281, 27.55], [-97.283, 27.545], [-97.283, 27.549], [-97.281, 27.55]]], [[[-97.278, 27.554], [-97.28, 27.554], [-97.277, 27.559], [-97.278, 27.554]]], [[[-97.275, 27.559], [-97.276, 27.561], [-97.274, 27.561], [-97.275, 27.559]]], [[[-97.272, 27.568], [-97.27, 27.567], [-97.275, 27.562], [-97.272, 27.568]]], [[[-97.271, 27.571], [-97.27, 27.57], [-97.271, 27.569], [-97.271, 27.571]]], [[[-97.269, 27.572], [-97.27, 27.572], [-97.268, 27.576], [-97.269, 27.572]]], [[[-97.266, 27.577], [-97.268, 27.577], [-97.266, 27.58], [-97.266, 27.577]]], [[[-97.259, 27.59], [-97.261, 27.584], [-97.264, 27.582], [-97.259, 27.59]]], [[[-97.257, 27.592], [-97.26, 27.591], [-97.259, 27.594], [-97.257, 27.592]]], [[[-97.257, 27.596], [-97.256, 27.594], [-97.258, 27.595], [-97.257, 27.596]]], [[[-97.254, 27.605], [-97.254, 27.605], [-97.254, 27.605], [-97.254, 27.605]]], [[[-97.218, 27.606], [-97.218, 27.604], [-97.219, 27.603], [-97.218, 27.606]]], [[[-97.25, 27.605], [-97.256, 27.601], [-97.253, 27.607], [-97.25, 27.605]]], [[[-97.209, 27.623], [-97.211, 27.617], [-97.212, 27.619], [-97.209, 27.623]]], [[[-97.214, 27.623], [-97.215, 27.626], [-97.212, 27.624], [-97.214, 27.623]]], [[[-97.241, 27.625], [-97.248, 27.612], [-97.244, 27.623], [-97.241, 27.625]]], [[[-97.289, 27.63], [-97.29, 27.627], [-97.291, 27.627], [-97.289, 27.63]]], [[[-97.223, 27.633], [-97.22, 27.603], [-97.203, 27.614], [-97.307, 27.401], [-97.369, 27.204], [-97.371, 26.908], [-97.276, 26.565], [-97.309, 26.565], [-97.283, 26.576], [-97.292, 26.6], [-97.279, 26.57], [-97.322, 26.692], [-97.325, 26.675], [-97.345, 26.726], [-97.357, 26.725], [-97.366, 26.755], [-97.342, 26.763], [-97.369, 26.771], [-97.388, 26.849], [-97.373, 26.872], [-97.391, 26.883], [-97.37, 26.897], [-97.378, 26.935], [-97.391, 26.926], [-97.391, 26.944], [-97.377, 26.945], [-97.39, 26.966], [-97.39, 27.128], [-97.375, 27.204], [-97.39, 27.205], [-97.383, 27.246], [-97.359, 27.273], [-97.372, 27.294], [-97.356, 27.309], [-97.359, 27.367], [-97.241, 27.586], [-97.257, 27.598], [-97.226, 27.586], [-97.242, 27.597], [-97.23, 27.602], [-97.252, 27.601], [-97.223, 27.633]]], [[[-97.227, 27.633], [-97.227, 27.631], [-97.23, 27.633], [-97.227, 27.633]]], [[[-97.233, 27.632], [-97.241, 27.629], [-97.238, 27.635], [-97.233, 27.632]]], [[[-97.235, 27.635], [-97.237, 27.636], [-97.236, 27.638], [-97.235, 27.635]]], [[[-97.207, 27.642], [-97.213, 27.634], [-97.214, 27.642], [-97.207, 27.642]]], [[[-97.233, 27.641], [-97.234, 27.642], [-97.233, 27.644], [-97.233, 27.641]]], [[[-97.215, 27.643], [-97.215, 27.645], [-97.214, 27.644], [-97.215, 27.643]]], [[[-97.232, 27.647], [-97.232, 27.649], [-97.231, 27.647], [-97.232, 27.647]]], [[[-97.23, 27.66], [-97.229, 27.656], [-97.232, 27.653], [-97.23, 27.66]]], [[[-97.229, 27.66], [-97.231, 27.66], [-97.231, 27.662], [-97.229, 27.66]]], [[[-97.227, 27.675], [-97.224, 27.673], [-97.228, 27.66], [-97.227, 27.675]]], [[[-97.229, 27.683], [-97.229, 27.678], [-97.232, 27.683], [-97.229, 27.683]]], [[[-97.239, 27.681], [-97.244, 27.672], [-97.246, 27.682], [-97.239, 27.681]]], [[[-97.241, 27.684], [-97.242, 27.684], [-97.238, 27.685], [-97.241, 27.684]]], [[[-97.222, 27.686], [-97.217, 27.683], [-97.223, 27.675], [-97.222, 27.686]]], [[[-97.237, 27.687], [-97.229, 27.683], [-97.235, 27.683], [-97.237, 27.687]]], [[[-97.18, 27.688], [-97.166, 27.676], [-97.203, 27.615], [-97.205, 27.627], [-97.214, 27.619], [-97.203, 27.653], [-97.192, 27.649], [-97.196, 27.684], [-97.18, 27.688]]], [[[-97.161, 27.741], [-97.161, 27.741], [-97.161, 27.742], [-97.161, 27.741]]], [[[-97.157, 27.744], [-97.161, 27.742], [-97.16, 27.745], [-97.157, 27.744]]], [[[-97.139, 27.745], [-97.147, 27.743], [-97.145, 27.745], [-97.139, 27.745]]], [[[-97.157, 27.752], [-97.156, 27.751], [-97.156, 27.756], [-97.157, 27.752]]], [[[-97.131, 27.755], [-97.135, 27.754], [-97.132, 27.758], [-97.131, 27.755]]], [[[-97.141, 27.764], [-97.145, 27.759], [-97.147, 27.761], [-97.141, 27.764]]], [[[-97.167, 27.764], [-97.168, 27.755], [-97.174, 27.754], [-97.167, 27.764]]], [[[-97.151, 27.765], [-97.15, 27.764], [-97.152, 27.765], [-97.151, 27.765]]], [[[-97.143, 27.766], [-97.147, 27.761], [-97.15, 27.763], [-97.143, 27.766]]], [[[-97.151, 27.769], [-97.151, 27.768], [-97.151, 27.769], [-97.151, 27.769]]], [[[-97.136, 27.767], [-97.14, 27.764], [-97.136, 27.77], [-97.136, 27.767]]], [[[-97.151, 27.767], [-97.15, 27.77], [-97.147, 27.772], [-97.151, 27.767]]], [[[-97.146, 27.771], [-97.142, 27.773], [-97.142, 27.772], [-97.146, 27.771]]], [[[-97.143, 27.773], [-97.146, 27.771], [-97.147, 27.772], [-97.143, 27.773]]], [[[-97.137, 27.774], [-97.137, 27.771], [-97.142, 27.773], [-97.137, 27.774]]], [[[-97.129, 27.777], [-97.134, 27.771], [-97.136, 27.772], [-97.129, 27.777]]], [[[-97.106, 27.795], [-97.113, 27.79], [-97.109, 27.794], [-97.106, 27.795]]], [[[-97.111, 27.799], [-97.118, 27.798], [-97.111, 27.805], [-97.111, 27.799]]], [[[-97.105, 27.806], [-97.108, 27.801], [-97.11, 27.804], [-97.105, 27.806]]], [[[-97.1, 27.806], [-97.105, 27.798], [-97.105, 27.805], [-97.1, 27.806]]], [[[-97.101, 27.814], [-97.101, 27.812], [-97.107, 27.812], [-97.101, 27.814]]], [[[-97.196, 27.815], [-97.206, 27.807], [-97.222, 27.81], [-97.196, 27.815]]], [[[-97.179, 27.818], [-97.186, 27.813], [-97.193, 27.815], [-97.179, 27.818]]], [[[-97.153, 27.822], [-97.145, 27.816], [-97.164, 27.817], [-97.153, 27.822]]], [[[-97.113, 27.824], [-97.135, 27.824], [-97.114, 27.83], [-97.113, 27.824]]], [[[-97.106, 27.831], [-97.106, 27.825], [-97.113, 27.825], [-97.106, 27.831]]], [[[-97.239, 27.836], [-97.23, 27.83], [-97.234, 27.829], [-97.239, 27.836]]], [[[-97.054, 27.84], [-97.045, 27.834], [-97.173, 27.681], [-97.184, 27.695], [-97.164, 27.733], [-97.165, 27.724], [-97.149, 27.731], [-97.099, 27.808], [-97.086, 27.804], [-97.096, 27.815], [-97.082, 27.81], [-97.069, 27.827], [-97.104, 27.832], [-97.054, 27.84]]], [[[-97.126, 27.843], [-97.112, 27.84], [-97.127, 27.838], [-97.126, 27.843]]], [[[-97.49, 27.843], [-97.488, 27.843], [-97.489, 27.84], [-97.49, 27.843]]], [[[-97.137, 27.853], [-97.142, 27.849], [-97.138, 27.855], [-97.137, 27.853]]], [[[-97.079, 27.862], [-97.061, 27.846], [-97.105, 27.84], [-97.079, 27.862]]], [[[-97.094, 27.866], [-97.097, 27.863], [-97.099, 27.863], [-97.094, 27.866]]], [[[-97.055, 27.871], [-97.064, 27.852], [-97.081, 27.868], [-97.055, 27.871]]], [[[-97.468, 27.87], [-97.468, 27.87], [-97.467, 27.869], [-97.468, 27.87]]], [[[-97.266, 27.873], [-97.252, 27.871], [-97.238, 27.839], [-97.266, 27.873]]], [[[-97.053, 27.879], [-97.053, 27.871], [-97.058, 27.875], [-97.053, 27.879]]], [[[-97.143, 27.881], [-97.142, 27.879], [-97.151, 27.875], [-97.143, 27.881]]], [[[-97.101, 27.882], [-97.082, 27.865], [-97.085, 27.865], [-97.101, 27.882]]], [[[-97.117, 27.886], [-97.117, 27.886], [-97.118, 27.886], [-97.117, 27.886]]], [[[-97.051, 27.888], [-97.051, 27.879], [-97.054, 27.887], [-97.051, 27.888]]], [[[-97.062, 27.893], [-97.057, 27.891], [-97.061, 27.89], [-97.062, 27.893]]], [[[-97.141, 27.887], [-97.145, 27.888], [-97.138, 27.893], [-97.141, 27.887]]], [[[-97.132, 27.896], [-97.11, 27.889], [-97.117, 27.886], [-97.132, 27.896]]], [[[-97.039, 27.898], [-97.039, 27.899], [-97.039, 27.899], [-97.039, 27.898]]], [[[-97.138, 27.9], [-97.138, 27.894], [-97.142, 27.895], [-97.138, 27.9]]], [[[-97.098, 27.904], [-97.107, 27.895], [-97.106, 27.901], [-97.098, 27.904]]], [[[-97.128, 27.899], [-97.133, 27.899], [-97.129, 27.905], [-97.128, 27.899]]], [[[-97.124, 27.909], [-97.127, 27.908], [-97.125, 27.913], [-97.124, 27.909]]], [[[-97.073, 27.915], [-97.052, 27.889], [-97.074, 27.897], [-97.073, 27.915]]], [[[-97.077, 27.916], [-97.078, 27.915], [-97.081, 27.917], [-97.077, 27.916]]], [[[-97.018, 27.917], [-97.017, 27.921], [-97.011, 27.924], [-97.018, 27.917]]], [[[-97.076, 27.926], [-97.075, 27.919], [-97.077, 27.918], [-97.076, 27.926]]], [[[-97.078, 27.928], [-97.077, 27.927], [-97.077, 27.926], [-97.078, 27.928]]], [[[-97.006, 27.947], [-97.037, 27.938], [-97.029, 27.944], [-97.006, 27.947]]], [[[-96.997, 27.949], [-96.998, 27.941], [-97.005, 27.942], [-96.997, 27.949]]], [[[-97.072, 27.951], [-97.079, 27.931], [-97.077, 27.947], [-97.072, 27.951]]], [[[-97.075, 27.954], [-97.075, 27.954], [-97.075, 27.954], [-97.075, 27.954]]], [[[-97.071, 27.962], [-97.071, 27.953], [-97.075, 27.953], [-97.071, 27.962]]], [[[-97.08, 27.964], [-97.082, 27.963], [-97.081, 27.964], [-97.08, 27.964]]], [[[-97.069, 27.969], [-97.069, 27.964], [-97.073, 27.963], [-97.069, 27.969]]], [[[-97.079, 27.968], [-97.08, 27.969], [-97.079, 27.97], [-97.079, 27.968]]], [[[-97.07, 27.975], [-97.069, 27.97], [-97.08, 27.964], [-97.07, 27.975]]], [[[-97.071, 27.976], [-97.076, 27.973], [-97.073, 27.976], [-97.071, 27.976]]], [[[-96.985, 27.976], [-96.986, 27.976], [-96.986, 27.978], [-96.985, 27.976]]], [[[-96.982, 27.985], [-96.984, 27.984], [-96.981, 27.991], [-96.982, 27.985]]], [[[-97.066, 27.987], [-97.072, 27.977], [-97.067, 27.99], [-97.066, 27.987]]], [[[-96.976, 28.002], [-96.976, 28.001], [-96.976, 28.002], [-96.976, 28.002]]], [[[-96.96, 28.003], [-96.96, 28], [-96.964, 27.999], [-96.96, 28.003]]], [[[-96.974, 28.005], [-96.974, 28.006], [-96.974, 28.005], [-96.974, 28.005]]], [[[-96.965, 28.006], [-96.97, 28.006], [-96.968, 28.008], [-96.965, 28.006]]], [[[-96.962, 28.018], [-96.964, 28.016], [-96.967, 28.016], [-96.962, 28.018]]], [[[-96.963, 28.02], [-96.971, 28.01], [-96.965, 28.021], [-96.963, 28.02]]], [[[-96.939, 28.022], [-96.942, 28.025], [-96.939, 28.027], [-96.939, 28.022]]], [[[-96.931, 28.026], [-96.93, 28.021], [-96.938, 28.025], [-96.931, 28.026]]], [[[-96.944, 28.028], [-96.947, 28.026], [-96.946, 28.028], [-96.944, 28.028]]], [[[-96.954, 28.036], [-96.955, 28.036], [-96.954, 28.037], [-96.954, 28.036]]], [[[-96.923, 28.041], [-96.93, 28.04], [-96.929, 28.042], [-96.923, 28.041]]], [[[-96.914, 28.043], [-96.906, 28.034], [-96.912, 28.035], [-96.914, 28.043]]], [[[-96.919, 28.039], [-96.924, 28.043], [-96.922, 28.044], [-96.919, 28.039]]], [[[-96.945, 28.043], [-96.953, 28.037], [-96.947, 28.044], [-96.945, 28.043]]], [[[-96.898, 28.055], [-96.9, 28.052], [-96.91, 28.053], [-96.898, 28.055]]], [[[-96.922, 28.058], [-96.924, 28.056], [-96.927, 28.057], [-96.922, 28.058]]], [[[-96.932, 28.058], [-96.93, 28.057], [-96.935, 28.053], [-96.932, 28.058]]], [[[-96.919, 28.064], [-96.915, 28.061], [-96.92, 28.062], [-96.919, 28.064]]], [[[-96.908, 28.067], [-96.914, 28.061], [-96.917, 28.065], [-96.908, 28.067]]], [[[-96.898, 28.068], [-96.899, 28.065], [-96.909, 28.062], [-96.898, 28.068]]], [[[-97.018, 27.917], [-96.969, 27.984], [-96.983, 27.977], [-96.976, 28.001], [-96.938, 27.998], [-96.948, 28.016], [-96.935, 28.001], [-96.917, 28.02], [-96.93, 28.028], [-96.911, 28.019], [-96.932, 28.032], [-96.909, 28.028], [-96.91, 28.049], [-96.9, 28.034], [-96.877, 28.07], [-96.857, 28.064], [-97.002, 27.91], [-97.045, 27.84], [-97.046, 27.89], [-97.018, 27.917]]], [[[-96.88, 28.067], [-96.896, 28.062], [-96.886, 28.07], [-96.88, 28.067]]], [[[-96.901, 28.071], [-96.903, 28.07], [-96.911, 28.07], [-96.901, 28.071]]], [[[-96.932, 28.069], [-96.929, 28.061], [-96.932, 28.059], [-96.932, 28.069]]], [[[-96.849, 28.076], [-96.863, 28.066], [-96.865, 28.072], [-96.849, 28.076]]], [[[-96.893, 28.077], [-96.883, 28.075], [-96.908, 28.075], [-96.893, 28.077]]], [[[-96.887, 28.081], [-96.884, 28.079], [-96.891, 28.08], [-96.887, 28.081]]], [[[-96.862, 28.08], [-96.855, 28.072], [-96.877, 28.08], [-96.862, 28.08]]], [[[-96.901, 28.084], [-96.896, 28.082], [-96.904, 28.083], [-96.901, 28.084]]], [[[-96.9, 28.088], [-96.895, 28.086], [-96.9, 28.085], [-96.9, 28.088]]], [[[-96.93, 28.074], [-96.926, 28.087], [-96.921, 28.092], [-96.93, 28.074]]], [[[-96.896, 28.097], [-96.895, 28.092], [-96.898, 28.095], [-96.896, 28.097]]], [[[-96.891, 28.104], [-96.885, 28.102], [-96.898, 28.1], [-96.891, 28.104]]], [[[-96.852, 28.116], [-96.831, 28.113], [-96.847, 28.077], [-96.886, 28.092], [-96.868, 28.114], [-96.88, 28.103], [-96.865, 28.091], [-96.852, 28.116]]], [[[-97.053, 28.118], [-97.049, 28.118], [-97.049, 28.117], [-97.053, 28.118]]], [[[-96.862, 28.124], [-96.854, 28.119], [-96.857, 28.116], [-96.862, 28.124]]], [[[-97.172, 28.122], [-97.173, 28.122], [-97.172, 28.122], [-97.172, 28.122]]], [[[-97.172, 28.122], [-97.171, 28.123], [-97.17, 28.123], [-97.172, 28.122]]], [[[-97.166, 28.127], [-97.166, 28.126], [-97.167, 28.125], [-97.166, 28.127]]], [[[-96.988, 28.129], [-96.98, 28.125], [-96.983, 28.125], [-96.988, 28.129]]], [[[-96.882, 28.163], [-96.877, 28.168], [-96.868, 28.173], [-96.882, 28.163]]], [[[-96.863, 28.172], [-96.918, 28.125], [-96.894, 28.153], [-96.863, 28.172]]], [[[-96.846, 28.177], [-96.845, 28.175], [-96.858, 28.174], [-96.846, 28.177]]], [[[-96.84, 28.185], [-96.859, 28.176], [-96.843, 28.188], [-96.84, 28.185]]], [[[-96.824, 28.202], [-96.836, 28.189], [-96.842, 28.188], [-96.824, 28.202]]], [[[-96.699, 28.206], [-96.7, 28.206], [-96.7, 28.207], [-96.699, 28.206]]], [[[-96.784, 28.234], [-96.789, 28.228], [-96.8, 28.223], [-96.784, 28.234]]], [[[-96.658, 28.24], [-96.657, 28.241], [-96.657, 28.241], [-96.658, 28.24]]], [[[-96.604, 28.287], [-96.603, 28.287], [-96.605, 28.286], [-96.604, 28.287]]], [[[-96.602, 28.293], [-96.6, 28.293], [-96.604, 28.292], [-96.602, 28.293]]], [[[-96.581, 28.301], [-96.587, 28.295], [-96.599, 28.293], [-96.581, 28.301]]], [[[-96.622, 28.305], [-96.625, 28.304], [-96.627, 28.305], [-96.622, 28.305]]], [[[-96.626, 28.314], [-96.617, 28.306], [-96.625, 28.309], [-96.626, 28.314]]], [[[-96.681, 28.315], [-96.684, 28.314], [-96.685, 28.319], [-96.681, 28.315]]], [[[-96.677, 28.319], [-96.671, 28.317], [-96.678, 28.318], [-96.677, 28.319]]], [[[-96.636, 28.325], [-96.632, 28.319], [-96.65, 28.318], [-96.636, 28.325]]], [[[-96.611, 28.329], [-96.621, 28.319], [-96.615, 28.326], [-96.611, 28.329]]], [[[-96.638, 28.331], [-96.643, 28.325], [-96.671, 28.314], [-96.638, 28.331]]], [[[-96.606, 28.333], [-96.606, 28.332], [-96.606, 28.332], [-96.606, 28.333]]], [[[-96.604, 28.337], [-96.602, 28.336], [-96.605, 28.334], [-96.604, 28.337]]], [[[-96.602, 28.337], [-96.602, 28.337], [-96.602, 28.338], [-96.602, 28.337]]], [[[-96.612, 28.349], [-96.61, 28.349], [-96.617, 28.345], [-96.612, 28.349]]], [[[-96.582, 28.354], [-96.594, 28.344], [-96.588, 28.352], [-96.582, 28.354]]], [[[-96.575, 28.361], [-96.638, 28.331], [-96.579, 28.364], [-96.575, 28.361]]], [[[-96.553, 28.37], [-96.553, 28.368], [-96.573, 28.36], [-96.553, 28.37]]], [[[-96.469, 28.371], [-96.469, 28.371], [-96.468, 28.372], [-96.469, 28.371]]], [[[-96.464, 28.374], [-96.464, 28.374], [-96.464, 28.374], [-96.464, 28.374]]], [[[-96.444, 28.383], [-96.443, 28.378], [-96.471, 28.365], [-96.444, 28.383]]], [[[-96.397, 28.386], [-96.389, 28.376], [-96.399, 28.364], [-96.397, 28.386]]], [[[-96.413, 28.4], [-96.403, 28.367], [-96.419, 28.362], [-96.402, 28.355], [-96.443, 28.318], [-96.625, 28.227], [-96.853, 28.064], [-96.802, 28.139], [-96.819, 28.143], [-96.816, 28.175], [-96.703, 28.198], [-96.69, 28.208], [-96.703, 28.216], [-96.654, 28.228], [-96.655, 28.246], [-96.616, 28.262], [-96.626, 28.269], [-96.605, 28.286], [-96.439, 28.343], [-96.409, 28.36], [-96.446, 28.371], [-96.413, 28.4]]], [[[-96.482, 28.403], [-96.512, 28.384], [-96.528, 28.378], [-96.482, 28.403]]], [[[-96.42, 28.4], [-96.451, 28.385], [-96.446, 28.393], [-96.42, 28.4]]], [[[-96.484, 28.404], [-96.577, 28.364], [-96.504, 28.399], [-96.484, 28.404]]], [[[-96.411, 28.42], [-96.419, 28.417], [-96.439, 28.419], [-96.411, 28.42]]], [[[-96.43, 28.423], [-96.429, 28.422], [-96.434, 28.422], [-96.43, 28.423]]], [[[-96.403, 28.416], [-96.418, 28.402], [-96.409, 28.423], [-96.403, 28.416]]], [[[-96.746, 28.41], [-96.753, 28.421], [-96.752, 28.427], [-96.746, 28.41]]], [[[-96.337, 28.433], [-96.329, 28.425], [-96.389, 28.389], [-96.337, 28.433]]], [[[-96.415, 28.434], [-96.48, 28.403], [-96.474, 28.412], [-96.415, 28.434]]], [[[-96.397, 28.441], [-96.401, 28.427], [-96.424, 28.422], [-96.397, 28.441]]], [[[-96.344, 28.451], [-96.349, 28.449], [-96.346, 28.453], [-96.344, 28.451]]], [[[-96.821, 28.457], [-96.825, 28.453], [-96.828, 28.457], [-96.821, 28.457]]], [[[-96.231, 28.495], [-96.32, 28.424], [-96.333, 28.434], [-96.231, 28.495]]], [[[-96.561, 28.6], [-96.56, 28.597], [-96.564, 28.6], [-96.561, 28.6]]], [[[-96.171, 28.608], [-96.229, 28.582], [-96.232, 28.593], [-96.171, 28.608]]], [[[-96.163, 28.614], [-96.162, 28.612], [-96.167, 28.612], [-96.163, 28.614]]], [[[-95.979, 28.604], [-96.224, 28.488], [-96.217, 28.511], [-96.2, 28.503], [-96.207, 28.512], [-96.188, 28.51], [-96.197, 28.519], [-96.164, 28.534], [-96.155, 28.526], [-96.154, 28.54], [-96.111, 28.545], [-96.069, 28.577], [-96.044, 28.575], [-96.046, 28.589], [-96.012, 28.588], [-95.979, 28.615], [-95.979, 28.604]]], [[[-96.213, 28.613], [-96.215, 28.598], [-96.232, 28.594], [-96.213, 28.613]]], [[[-95.989, 28.615], [-95.983, 28.618], [-95.986, 28.615], [-95.989, 28.615]]], [[[-95.991, 28.616], [-95.993, 28.616], [-95.983, 28.619], [-95.991, 28.616]]], [[[-96.103, 28.625], [-96.18, 28.595], [-96.166, 28.61], [-96.103, 28.625]]], [[[-96.123, 28.631], [-96.127, 28.629], [-96.124, 28.632], [-96.123, 28.631]]], [[[-95.957, 28.64], [-95.952, 28.635], [-95.956, 28.633], [-95.957, 28.64]]], [[[-96.005, 28.653], [-96.003, 28.646], [-96.009, 28.642], [-96.005, 28.653]]], [[[-96.039, 28.659], [-96.04, 28.649], [-96.099, 28.625], [-96.039, 28.659]]], [[[-96.572, 28.658], [-96.566, 28.651], [-96.571, 28.636], [-96.572, 28.658]]], [[[-96.009, 28.66], [-96.013, 28.643], [-96.038, 28.653], [-96.009, 28.66]]], [[[-95.955, 28.663], [-95.958, 28.664], [-95.952, 28.665], [-95.955, 28.663]]], [[[-95.978, 28.68], [-95.986, 28.655], [-96.007, 28.656], [-95.978, 28.68]]], [[[-95.963, 28.657], [-95.982, 28.619], [-95.975, 28.68], [-95.963, 28.657]]], [[[-96.572, 28.691], [-96.575, 28.688], [-96.574, 28.691], [-96.572, 28.691]]], [[[-96.577, 28.692], [-96.578, 28.689], [-96.58, 28.691], [-96.577, 28.692]]], [[[-96.579, 28.694], [-96.577, 28.693], [-96.58, 28.691], [-96.579, 28.694]]], [[[-96.576, 28.698], [-96.58, 28.698], [-96.579, 28.7], [-96.576, 28.698]]], [[[-96.563, 28.703], [-96.573, 28.693], [-96.573, 28.707], [-96.563, 28.703]]], [[[-95.887, 28.716], [-95.963, 28.665], [-95.937, 28.671], [-95.966, 28.63], [-95.94, 28.63], [-95.964, 28.617], [-95.94, 28.613], [-95.979, 28.597], [-95.962, 28.658], [-95.973, 28.68], [-95.887, 28.716]]], [[[-96.573, 28.708], [-96.572, 28.718], [-96.567, 28.712], [-96.573, 28.708]]], [[[-96.657, 28.713], [-96.659, 28.719], [-96.655, 28.718], [-96.657, 28.713]]], [[[-95.701, 28.729], [-95.834, 28.656], [-95.938, 28.612], [-95.944, 28.621], [-95.701, 28.729]]], [[[-95.695, 28.73], [-95.695, 28.732], [-95.695, 28.732], [-95.695, 28.73]]], [[[-95.69, 28.733], [-95.69, 28.732], [-95.692, 28.732], [-95.69, 28.733]]], [[[-95.83, 28.735], [-95.834, 28.731], [-95.886, 28.715], [-95.83, 28.735]]], [[[-95.691, 28.733], [-95.694, 28.733], [-95.693, 28.737], [-95.691, 28.733]]], [[[-95.69, 28.734], [-95.69, 28.737], [-95.689, 28.735], [-95.69, 28.734]]], [[[-95.701, 28.739], [-95.698, 28.738], [-95.695, 28.734], [-95.701, 28.739]]], [[[-95.696, 28.738], [-95.695, 28.736], [-95.698, 28.737], [-95.696, 28.738]]], [[[-95.694, 28.739], [-95.694, 28.737], [-95.695, 28.738], [-95.694, 28.739]]], [[[-95.817, 28.738], [-95.827, 28.735], [-95.812, 28.74], [-95.817, 28.738]]], [[[-95.769, 28.749], [-95.765, 28.745], [-95.774, 28.748], [-95.769, 28.749]]], [[[-95.751, 28.749], [-95.728, 28.739], [-95.767, 28.744], [-95.751, 28.749]]], [[[-96.448, 28.75], [-96.444, 28.749], [-96.447, 28.742], [-96.448, 28.75]]], [[[-95.66, 28.748], [-95.697, 28.727], [-95.666, 28.757], [-95.66, 28.748]]], [[[-95.675, 28.759], [-95.686, 28.754], [-95.673, 28.761], [-95.675, 28.759]]], [[[-95.664, 28.763], [-95.655, 28.762], [-95.667, 28.76], [-95.664, 28.763]]], [[[-95.647, 28.763], [-95.652, 28.763], [-95.649, 28.766], [-95.647, 28.763]]], [[[-95.627, 28.766], [-95.645, 28.763], [-95.631, 28.774], [-95.627, 28.766]]], [[[-95.623, 28.775], [-95.624, 28.768], [-95.63, 28.775], [-95.623, 28.775]]], [[[-95.625, 28.781], [-95.622, 28.776], [-95.646, 28.766], [-95.625, 28.781]]], [[[-95.585, 28.786], [-95.658, 28.755], [-95.654, 28.762], [-95.585, 28.786]]], [[[-95.554, 28.801], [-95.589, 28.783], [-95.584, 28.787], [-95.554, 28.801]]], [[[-95.504, 28.836], [-95.553, 28.802], [-95.534, 28.827], [-95.504, 28.836]]], [[[-99.564, 31.49], [-99.536, 31.483], [-99.512, 31.425], [-99.496, 31.445], [-99.471, 31.422], [-99.437, 31.446], [-99.45, 31.458], [-99.442, 31.475], [-99.357, 31.431], [-99.344, 31.443], [-99.346, 31.422], [-99.314, 31.41], [-99.24, 31.483], [-99.21, 31.465], [-99.194, 31.473], [-99.184, 31.454], [-99.116, 31.468], [-99.096, 31.448], [-99.041, 31.491], [-99.019, 31.47], [-98.988, 31.482], [-98.995, 31.466], [-98.965, 31.453], [-98.966, 31.435], [-98.941, 31.459], [-98.925, 31.434], [-98.871, 31.444], [-98.847, 31.411], [-98.777, 31.414], [-98.778, 31.377], [-98.753, 31.385], [-98.743, 31.428], [-98.729, 31.429], [-98.725, 31.408], [-98.695, 31.406], [-98.713, 31.355], [-98.703, 31.339], [-98.653, 31.37], [-98.636, 31.353], [-98.648, 31.315], [-98.587, 31.325], [-98.598, 31.287], [-98.628, 31.274], [-98.596, 31.253], [-98.58, 31.265], [-98.563, 31.23], [-98.18, 31.464], [-97.907, 31.069], [-97.419, 31.32], [-97.343, 31.244], [-97.278, 31.28], [-97.07, 30.986], [-96.83, 31.11], [-96.809, 31.08], [-96.82, 31.061], [-96.792, 31.065], [-96.768, 31.049], [-96.78, 31.033], [-96.771, 31.002], [-96.746, 31], [-96.772, 30.969], [-96.757, 30.928], [-96.726, 30.899], [-96.685, 30.906], [-96.697, 30.898], [-96.682, 30.882], [-96.695, 30.865], [-96.641, 30.818], [-96.648, 30.781], [-96.625, 30.781], [-96.613, 30.759], [-96.633, 30.741], [-96.568, 30.7], [-96.602, 30.64], [-96.511, 30.628], [-96.5, 30.613], [-96.489, 30.622], [-96.488, 30.605], [-96.452, 30.597], [-96.435, 30.573], [-96.426, 30.591], [-96.416, 30.542], [-96.359, 30.543], [-96.355, 30.522], [-96.371, 30.514], [-96.342, 30.497], [-96.33, 30.477], [-96.34, 30.472], [-96.321, 30.45], [-96.285, 30.448], [-96.288, 30.421], [-96.272, 30.41], [-96.297, 30.412], [-96.307, 30.395], [-96.287, 30.365], [-96.21, 30.374], [-96.196, 30.4], [-96.179, 30.395], [-96.176, 30.376], [-96.15, 30.369], [-96.153, 30.328], [-96.12, 30.305], [-96.096, 30.31], [-96.1, 30.291], [-96.084, 30.288], [-96.099, 30.257], [-96.082, 30.241], [-96.105, 30.233], [-96.093, 30.22], [-96.116, 30.228], [-96.159, 30.207], [-96.151, 30.147], [-96.181, 30.156], [-96.172, 30.14], [-96.192, 30.138], [-96.179, 30.12], [-96.192, 30.115], [-96.171, 30.099], [-96.154, 30.108], [-96.158, 30.092], [-96.134, 30.071], [-96.151, 30.076], [-96.146, 30.064], [-96.115, 30.049], [-96.113, 30.027], [-96.097, 30.028], [-96.085, 30.005], [-96.105, 29.996], [-96.093, 29.961], [-96.126, 29.965], [-96.101, 29.944], [-96.131, 29.939], [-96.113, 29.914], [-96.126, 29.898], [-96.092, 29.882], [-96.112, 29.873], [-96.101, 29.853], [-96.121, 29.837], [-96.098, 29.827], [-96.103, 29.81], [-96.047, 29.801], [-96.033, 29.718], [-96.005, 29.709], [-96.023, 29.705], [-96.017, 29.68], [-96.06, 29.679], [-96.017, 29.667], [-96.033, 29.658], [-96.015, 29.642], [-96.025, 29.603], [-96.089, 29.602], [-96.062, 29.591], [-96.045, 29.562], [-96.054, 29.512], [-96.022, 29.502], [-96.06, 29.492], [-96.06, 29.474], [-96.03, 29.452], [-96.035, 29.443], [-95.992, 29.434], [-95.972, 29.411], [-95.968, 29.384], [-95.937, 29.359], [-95.95, 29.336], [-95.894, 29.315], [-95.879, 29.266], [-95.842, 29.26], [-95.874, 29.23], [-95.845, 29.205], [-95.858, 29.193], [-95.838, 29.177], [-95.846, 29.107], [-95.765, 29.061], [-95.786, 29.039], [-95.769, 28.971], [-95.699, 28.97], [-95.655, 28.952], [-95.642, 28.904], [-95.579, 28.86], [-95.572, 28.831], [-95.536, 28.832], [-95.539, 28.814], [-95.618, 28.771], [-95.645, 28.81], [-95.626, 28.782], [-95.644, 28.798], [-95.631, 28.777], [-95.646, 28.763], [-95.634, 28.772], [-95.664, 28.789], [-95.649, 28.801], [-95.668, 28.797], [-95.655, 28.806], [-95.674, 28.822], [-95.668, 28.837], [-95.674, 28.823], [-95.655, 28.806], [-95.669, 28.797], [-95.65, 28.8], [-95.664, 28.789], [-95.636, 28.771], [-95.727, 28.74], [-95.776, 28.76], [-95.75, 28.784], [-95.776, 28.76], [-95.768, 28.75], [-95.826, 28.737], [-95.837, 28.76], [-95.877, 28.778], [-95.841, 28.762], [-95.827, 28.737], [-95.879, 28.721], [-95.887, 28.736], [-95.879, 28.721], [-95.976, 28.683], [-95.972, 28.737], [-95.998, 28.756], [-95.973, 28.736], [-95.977, 28.682], [-96.011, 28.667], [-95.982, 28.693], [-96.007, 28.682], [-96, 28.731], [-96.016, 28.707], [-96.013, 28.666], [-96.043, 28.66], [-96.056, 28.675], [-96.044, 28.66], [-96.101, 28.626], [-96.097, 28.652], [-96.116, 28.635], [-96.121, 28.655], [-96.13, 28.626], [-96.103, 28.626], [-96.155, 28.614], [-96.179, 28.633], [-96.212, 28.614], [-96.235, 28.643], [-96.2, 28.662], [-96.217, 28.664], [-96.171, 28.712], [-96.19, 28.724], [-96.171, 28.759], [-96.147, 28.761], [-96.16, 28.776], [-96.15, 28.786], [-96.161, 28.776], [-96.151, 28.76], [-96.193, 28.764], [-96.177, 28.75], [-96.205, 28.729], [-96.208, 28.698], [-96.279, 28.672], [-96.259, 28.686], [-96.255, 28.718], [-96.274, 28.722], [-96.272, 28.743], [-96.275, 28.723], [-96.29, 28.738], [-96.26, 28.715], [-96.263, 28.694], [-96.292, 28.697], [-96.277, 28.687], [-96.306, 28.659], [-96.313, 28.671], [-96.304, 28.647], [-96.362, 28.627], [-96.36, 28.66], [-96.395, 28.68], [-96.39, 28.729], [-96.405, 28.737], [-96.433, 28.717], [-96.429, 28.74], [-96.451, 28.757], [-96.42, 28.773], [-96.441, 28.772], [-96.453, 28.756], [-96.435, 28.738], [-96.439, 28.714], [-96.418, 28.709], [-96.405, 28.727], [-96.424, 28.683], [-96.406, 28.666], [-96.421, 28.657], [-96.411, 28.637], [-96.424, 28.636], [-96.412, 28.623], [-96.394, 28.632], [-96.395, 28.615], [-96.38, 28.621], [-96.494, 28.567], [-96.479, 28.596], [-96.46, 28.583], [-96.435, 28.607], [-96.484, 28.688], [-96.462, 28.636], [-96.484, 28.608], [-96.514, 28.616], [-96.495, 28.628], [-96.53, 28.668], [-96.529, 28.715], [-96.537, 28.682], [-96.533, 28.664], [-96.515, 28.661], [-96.517, 28.642], [-96.562, 28.635], [-96.549, 28.645], [-96.564, 28.643], [-96.567, 28.662], [-96.586, 28.657], [-96.558, 28.691], [-96.562, 28.749], [-96.575, 28.747], [-96.569, 28.716], [-96.588, 28.735], [-96.575, 28.758], [-96.59, 28.79], [-96.578, 28.832], [-96.59, 28.789], [-96.577, 28.758], [-96.59, 28.736], [-96.577, 28.7], [-96.585, 28.725], [-96.612, 28.724], [-96.602, 28.764], [-96.611, 28.721], [-96.645, 28.711], [-96.671, 28.762], [-96.665, 28.696], [-96.61, 28.639], [-96.625, 28.624], [-96.612, 28.586], [-96.65, 28.578], [-96.593, 28.567], [-96.592, 28.583], [-96.611, 28.581], [-96.568, 28.583], [-96.487, 28.512], [-96.507, 28.52], [-96.497, 28.512], [-96.525, 28.493], [-96.561, 28.493], [-96.563, 28.468], [-96.594, 28.466], [-96.584, 28.455], [-96.553, 28.48], [-96.518, 28.466], [-96.504, 28.495], [-96.48, 28.502], [-96.488, 28.51], [-96.419, 28.467], [-96.445, 28.444], [-96.415, 28.463], [-96.395, 28.446], [-96.675, 28.322], [-96.645, 28.34], [-96.688, 28.328], [-96.707, 28.355], [-96.705, 28.409], [-96.745, 28.412], [-96.752, 28.438], [-96.793, 28.466], [-96.797, 28.498], [-96.793, 28.483], [-96.828, 28.461], [-96.851, 28.488], [-96.819, 28.446], [-96.798, 28.46], [-96.765, 28.425], [-96.781, 28.401], [-96.838, 28.433], [-96.86, 28.413], [-96.792, 28.36], [-96.792, 28.313], [-96.81, 28.289], [-96.781, 28.241], [-96.792, 28.231], [-96.789, 28.25], [-96.794, 28.229], [-96.911, 28.136], [-96.907, 28.151], [-96.931, 28.124], [-96.961, 28.123], [-96.92, 28.2], [-96.942, 28.218], [-96.912, 28.265], [-96.938, 28.251], [-96.936, 28.268], [-96.968, 28.22], [-97.002, 28.227], [-96.946, 28.197], [-96.973, 28.173], [-96.98, 28.13], [-97.028, 28.15], [-97.008, 28.159], [-97.018, 28.184], [-97.005, 28.205], [-97.042, 28.208], [-97.019, 28.202], [-97.029, 28.19], [-97.146, 28.141], [-97.143, 28.171], [-97.172, 28.166], [-97.19, 28.182], [-97.173, 28.166], [-97.181, 28.143], [-97.154, 28.137], [-97.222, 28.076], [-97.242, 28.079], [-97.236, 28.063], [-97.262, 28.078], [-97.241, 28.061], [-97.215, 28.073], [-97.179, 28.058], [-97.178, 28.044], [-97.159, 28.047], [-97.157, 28.006], [-97.182, 27.971], [-97.168, 27.995], [-97.147, 28], [-97.141, 28.027], [-97.109, 28.033], [-97.135, 28.048], [-97.117, 28.048], [-97.112, 28.069], [-97.08, 28.07], [-97.107, 28.071], [-97.054, 28.093], [-97.049, 28.118], [-97.021, 28.105], [-97.037, 28.076], [-97.025, 28.032], [-97.034, 28.047], [-97.047, 28.028], [-97.031, 28.031], [-97.095, 27.969], [-97.19, 27.824], [-97.225, 27.827], [-97.222, 27.854], [-97.232, 27.849], [-97.264, 27.881], [-97.355, 27.85], [-97.331, 27.873], [-97.338, 27.884], [-97.447, 27.869], [-97.46, 27.878], [-97.457, 27.867], [-97.481, 27.86], [-97.493, 27.884], [-97.556, 27.872], [-97.489, 27.844], [-97.555, 27.861], [-97.536, 27.848], [-97.495, 27.844], [-97.472, 27.824], [-97.436, 27.832], [-97.418, 27.82], [-97.383, 27.838], [-97.392, 27.813], [-97.471, 27.819], [-97.526, 27.843], [-97.476, 27.817], [-97.393, 27.811], [-97.392, 27.777], [-97.362, 27.735], [-97.244, 27.689], [-97.269, 27.677], [-97.299, 27.602], [-97.31, 27.607], [-97.294, 27.594], [-97.322, 27.569], [-97.369, 27.411], [-97.414, 27.322], [-97.508, 27.275], [-97.545, 27.285], [-97.517, 27.305], [-97.496, 27.3], [-97.503, 27.324], [-97.483, 27.33], [-97.477, 27.35], [-97.486, 27.385], [-97.466, 27.403], [-97.487, 27.444], [-97.467, 27.459], [-97.487, 27.449], [-97.494, 27.47], [-97.504, 27.457], [-97.521, 27.464], [-97.491, 27.435], [-97.53, 27.431], [-97.54, 27.459], [-97.525, 27.515], [-97.532, 27.493], [-97.546, 27.494], [-97.539, 27.475], [-97.557, 27.485], [-97.579, 27.473], [-97.541, 27.473], [-97.534, 27.416], [-97.56, 27.408], [-97.535, 27.399], [-97.501, 27.425], [-97.5, 27.41], [-97.474, 27.4], [-97.499, 27.379], [-97.518, 27.385], [-97.51, 27.369], [-97.525, 27.352], [-97.548, 27.355], [-97.534, 27.34], [-97.621, 27.289], [-97.637, 27.301], [-97.633, 27.325], [-97.658, 27.33], [-97.661, 27.36], [-97.689, 27.381], [-97.685, 27.404], [-97.691, 27.382], [-97.703, 27.385], [-97.698, 27.399], [-97.765, 27.434], [-97.771, 27.453], [-97.717, 27.382], [-97.752, 27.395], [-97.748, 27.37], [-97.706, 27.372], [-97.686, 27.32], [-97.655, 27.305], [-97.664, 27.286], [-97.725, 27.269], [-97.755, 27.286], [-97.8, 27.271], [-97.758, 27.282], [-97.734, 27.256], [-97.648, 27.276], [-97.631, 27.242], [-97.543, 27.229], [-97.423, 27.262], [-97.458, 27.1], [-97.493, 27.107], [-97.493, 27.083], [-97.507, 27.087], [-97.478, 27.066], [-97.499, 27.062], [-97.474, 27.029], [-97.481, 27.004], [-97.468, 26.99], [-97.454, 27.003], [-97.453, 26.989], [-97.472, 26.969], [-97.476, 26.998], [-97.511, 27.002], [-97.526, 26.997], [-97.512, 26.988], [-97.561, 26.998], [-97.551, 26.977], [-97.575, 26.983], [-97.549, 26.967], [-97.57, 26.971], [-97.549, 26.955], [-97.569, 26.962], [-97.552, 26.952], [-97.568, 26.958], [-97.548, 26.924], [-97.562, 26.931], [-97.539, 26.906], [-97.552, 26.902], [-97.523, 26.883], [-97.559, 26.903], [-97.552, 26.875], [-97.577, 26.884], [-97.55, 26.872], [-97.564, 26.865], [-97.55, 26.831], [-97.484, 26.799], [-97.449, 26.603], [-97.431, 26.58], [-97.444, 26.57], [-97.429, 26.57], [-97.432, 26.549], [-97.416, 26.552], [-97.418, 26.522], [-97.424, 26.546], [-97.437, 26.543], [-97.425, 26.517], [-97.448, 26.502], [-97.429, 26.504], [-97.443, 26.49], [-97.43, 26.477], [-97.453, 26.471], [-97.439, 26.463], [-97.456, 26.468], [-97.467, 26.453], [-97.456, 26.476], [-97.478, 26.457], [-97.454, 26.443], [-97.441, 26.455], [-97.425, 26.445], [-97.438, 26.441], [-97.431, 26.428], [-97.415, 26.429], [-97.451, 26.42], [-97.436, 26.408], [-97.447, 26.403], [-97.426, 26.418], [-97.391, 26.414], [-97.415, 26.403], [-97.404, 26.399], [-97.416, 26.381], [-97.448, 26.374], [-97.431, 26.363], [-97.456, 26.325], [-97.389, 26.35], [-97.391, 26.337], [-97.378, 26.349], [-97.388, 26.329], [-97.362, 26.355], [-97.328, 26.355], [-97.356, 26.31], [-97.347, 26.264], [-97.313, 26.273], [-97.328, 26.245], [-97.294, 26.259], [-97.335, 26.233], [-97.335, 26.216], [-97.321, 26.228], [-97.295, 26.195], [-97.31, 26.16], [-97.283, 26.119], [-97.297, 26.133], [-97.311, 26.119], [-97.269, 26.086], [-97.208, 26.067], [-97.222, 26.036], [-97.229, 26.071], [-97.262, 26.065], [-97.259, 26.047], [-97.237, 26.066], [-97.241, 26.046], [-97.225, 26.044], [-97.244, 26.041], [-97.238, 26.028], [-97.403, 25.952], [-97.292, 25.995], [-97.296, 25.97], [-97.292, 25.994], [-97.266, 25.992], [-97.292, 25.995], [-97.281, 26.001], [-97.291, 25.994], [-97.279, 25.985], [-97.267, 25.992], [-97.278, 26.003], [-97.253, 26.018], [-97.258, 25.997], [-97.231, 26.002], [-97.252, 25.964], [-97.217, 25.97], [-97.205, 25.994], [-97.166, 26.008], [-97.153, 25.998], [-97.159, 26.046], [-97.17, 26.029], [-97.154, 26.051], [-97.162, 26.061], [-97.182, 26.052], [-97.15, 26.064], [-97.148, 25.953], [-97.176, 25.966], [-97.247, 25.948], [-97.283, 25.959], [-97.277, 25.935], [-97.303, 25.937], [-97.326, 25.918], [-97.348, 25.931], [-97.375, 25.909], [-97.357, 25.888], [-97.374, 25.88], [-97.358, 25.869], [-97.376, 25.856], [-97.364, 25.85], [-97.373, 25.84], [-97.405, 25.838], [-97.409, 25.862], [-97.413, 25.841], [-97.443, 25.848], [-97.456, 25.884], [-97.497, 25.88], [-97.498, 25.899], [-97.522, 25.886], [-97.537, 25.931], [-97.583, 25.938], [-97.568, 25.952], [-97.577, 25.943], [-97.582, 25.962], [-97.602, 25.957], [-97.634, 25.99], [-97.618, 26.002], [-97.65, 26.011], [-97.641, 26.025], [-97.668, 26.02], [-97.663, 26.038], [-97.693, 26.032], [-97.691, 26.019], [-97.707, 26.038], [-97.738, 26.022], [-97.764, 26.027], [-97.768, 26.047], [-97.776, 26.03], [-97.792, 26.034], [-97.801, 26.06], [-97.813, 26.044], [-97.818, 26.056], [-97.861, 26.053], [-97.862, 26.07], [-97.869, 26.057], [-97.934, 26.065], [-97.935, 26.053], [-97.967, 26.052], [-97.981, 26.067], [-98.012, 26.056], [-98.028, 26.067], [-98.039, 26.041], [-98.073, 26.036], [-98.082, 26.071], [-98.094, 26.059], [-98.132, 26.074], [-98.147, 26.049], [-98.177, 26.075], [-98.194, 26.053], [-98.286, 26.102], [-98.266, 26.121], [-98.296, 26.12], [-98.307, 26.104], [-98.335, 26.138], [-98.335, 26.166], [-98.352, 26.151], [-98.361, 26.173], [-98.387, 26.158], [-98.443, 26.199], [-98.445, 26.225], [-98.482, 26.219], [-98.483, 26.202], [-98.555, 26.247], [-98.546, 26.237], [-98.563, 26.225], [-98.588, 26.258], [-98.617, 26.247], [-98.623, 26.26], [-98.634, 26.243], [-98.671, 26.237], [-98.681, 26.263], [-98.719, 26.272], [-98.704, 26.288], [-98.75, 26.296], [-98.754, 26.308], [-98.736, 26.309], [-98.751, 26.332], [-98.79, 26.331], [-98.807, 26.369], [-98.897, 26.353], [-98.926, 26.394], [-98.942, 26.37], [-98.957, 26.396], [-99.012, 26.392], [-99.032, 26.413], [-99.085, 26.399], [-99.114, 26.433], [-99.092, 26.472], [-99.105, 26.5], [-99.171, 26.542], [-99.209, 26.725], [-99.24, 26.746], [-99.269, 26.843], [-99.317, 26.866], [-99.325, 26.916], [-99.379, 26.934], [-99.394, 26.961], [-99.377, 26.978], [-99.415, 27.017], [-99.446, 27.023], [-99.452, 27.063], [-99.429, 27.091], [-99.442, 27.107], [-99.426, 27.176], [-99.442, 27.25], [-99.461, 27.268], [-99.488, 27.261], [-99.495, 27.304], [-99.538, 27.316], [-99.505, 27.339], [-99.488, 27.412], [-99.495, 27.452], [-99.479, 27.479], [-99.497, 27.5], [-99.528, 27.499], [-99.512, 27.568], [-99.555, 27.614], [-99.585, 27.604], [-99.577, 27.617], [-99.596, 27.64], [-99.624, 27.644], [-99.639, 27.627], [-99.666, 27.636], [-99.669, 27.66], [-99.712, 27.658], [-99.771, 27.732], [-99.796, 27.736], [-99.813, 27.774], [-99.839, 27.764], [-99.851, 27.794], [-99.877, 27.798], [-99.877, 27.842], [-99.904, 27.875], [-99.897, 27.908], [-99.937, 27.941], [-99.932, 27.981], [-99.991, 27.995], [-100.018, 28.065], [-100.053, 28.085], [-100.084, 28.145], [-100.208, 28.19], [-100.22, 28.232], [-100.252, 28.236], [-100.291, 28.275], [-100.286, 28.312], [-100.344, 28.39], [-100.338, 28.443], [-100.368, 28.477], [-100.334, 28.499], [-100.389, 28.516], [-100.411, 28.552], [-100.398, 28.585], [-100.447, 28.609], [-100.447, 28.642], [-100.5, 28.662], [-100.508, 28.741], [-100.533, 28.759], [-100.535, 28.805], [-100.547, 28.826], [-100.575, 28.829], [-100.601, 28.901], [-100.641, 28.914], [-100.63, 28.921], [-100.652, 28.943], [-100.646, 28.988], [-100.673, 29.096], [-100.776, 29.173], [-100.767, 29.195], [-100.797, 29.236], [-100.758, 29.238], [-100.762, 29.251], [-100.745, 29.255], [-100.747, 29.326], [-100.712, 29.338], [-100.699, 29.42], [-100.7, 30.288], [-100.116, 30.29], [-100.116, 30.71], [-99.484, 30.711], [-99.485, 30.941], [-99.604, 30.941], [-99.602, 31.492], [-99.564, 31.49]]]]}}, {"type": "Feature", "properties": {"code": "LZ_WEST"}, "geometry": {"type": "Polygon", "coordinates": [[[-100.643, 36.057], [-100.54, 36.056], [-100.54, 35.619], [-100, 35.619], [-100, 34.561], [-99.923, 34.575], [-99.695, 34.378], [-99.6, 34.375], [-99.57, 34.418], [-99.514, 34.414], [-99.438, 34.371], [-99.405, 34.373], [-99.387, 34.411], [-99.395, 34.442], [-99.359, 34.456], [-99.32, 34.409], [-99.261, 34.404], [-99.275, 34.385], [-99.243, 34.373], [-99.234, 34.34], [-99.213, 34.34], [-99.19, 34.214], [-99.154, 34.207], [-99.131, 34.219], [-99.127, 34.203], [-99.08, 34.212], [-99.044, 34.198], [-98.988, 34.221], [-98.973, 34.203], [-98.952, 34.212], [-98.873, 34.167], [-98.868, 34.15], [-98.813, 34.158], [-98.757, 34.125], [-98.69, 34.133], [-98.648, 34.164], [-98.6, 34.161], [-98.486, 34.063], [-98.414, 34.085], [-98.366, 34.157], [-98.171, 34.114], [-98.109, 34.154], [-98.09, 34.128], [-98.12, 34.072], [-98.084, 34.042], [-98.106, 34.035], [-98.088, 34.005], [-98.028, 33.993], [-97.974, 34.007], [-97.946, 33.99], [-97.974, 33.943], [-97.953, 33.936], [-97.957, 33.914], [-97.985, 33.901], [-97.979, 33.467], [-98.421, 33.467], [-98.427, 32.952], [-98.576, 32.954], [-98.576, 32.515], [-98.475, 32.513], [-98.475, 32.299], [-98.924, 32.078], [-99.196, 32.079], [-99.203, 31.467], [-99.247, 31.48], [-99.314, 31.41], [-99.346, 31.422], [-99.344, 31.443], [-99.357, 31.431], [-99.442, 31.475], [-99.45, 31.458], [-99.437, 31.446], [-99.471, 31.422], [-99.496, 31.445], [-99.512, 31.425], [-99.537, 31.483], [-99.602, 31.492], [-99.604, 30.941], [-99.485, 30.941], [-99.484, 30.711], [-100.116, 30.71], [-100.116, 30.29], [-100.7, 30.288], [-100.699, 29.42], [-100.712, 29.338], [-100.747, 29.326], [-100.738, 29.282], [-100.758, 29.238], [-100.876, 29.28], [-100.887, 29.308], [-101.01, 29.368], [-101.06, 29.459], [-101.144, 29.473], [-101.174, 29.515], [-101.255, 29.52], [-101.261, 29.537], [-101.241, 29.565], [-101.25, 29.624], [-101.269, 29.63], [-101.291, 29.572], [-101.306, 29.578], [-101.303, 29.65], [-101.346, 29.662], [-101.361, 29.65], [-101.373, 29.699], [-101.416, 29.747], [-101.402, 29.771], [-101.449, 29.751], [-101.462, 29.79], [-101.536, 29.759], [-101.545, 29.812], [-101.568, 29.799], [-101.575, 29.77], [-101.626, 29.771], [-101.646, 29.754], [-101.662, 29.771], [-101.709, 29.762], [-101.774, 29.789], [-101.808, 29.781], [-101.804, 29.803], [-101.818, 29.812], [-101.824, 29.787], [-101.851, 29.808], [-101.929, 29.783], [-101.936, 29.8], [-101.959, 29.797], [-101.976, 29.816], [-101.989, 29.797], [-102.036, 29.804], [-102.05, 29.785], [-102.074, 29.787], [-102.142, 29.803], [-102.18, 29.827], [-102.187, 29.849], [-102.224, 29.841], [-102.246, 29.864], [-102.261, 29.853], [-102.265, 29.868], [-102.316, 29.88], [-102.365, 29.845], [-102.388, 29.761], [-102.487, 29.787], [-102.518, 29.784], [-102.513, 29.766], [-102.548, 29.745], [-102.568, 29.771], [-102.574, 29.755], [-102.63, 29.734], [-102.675, 29.744], [-102.694, 29.677], [-102.742, 29.633], [-102.74, 29.599], [-102.768, 29.595], [-102.771, 29.549], [-102.809, 29.522], [-102.801, 29.486], [-102.826, 29.458], [-102.833, 29.411], [-102.813, 29.4], [-102.845, 29.374], [-102.839, 29.359], [-102.884, 29.348], [-102.906, 29.26], [-102.871, 29.241], [-102.868, 29.223], [-102.894, 29.209], [-102.912, 29.219], [-102.918, 29.191], [-102.943, 29.191], [-102.951, 29.174], [-102.996, 29.179], [-103.035, 29.1], [-103.076, 29.092], [-103.086, 29.054], [-103.101, 29.06], [-103.116, 28.985], [-103.164, 28.972], [-103.228, 28.992], [-103.25, 28.981], [-103.267, 28.996], [-103.283, 28.977], [-103.288, 29.002], [-103.316, 29.01], [-103.308, 29.025], [-103.338, 29.02], [-103.331, 29.043], [-103.344, 29.046], [-103.36, 29.019], [-103.387, 29.022], [-103.389, 29.034], [-103.432, 29.044], [-103.45, 29.073], [-103.47, 29.066], [-103.47, 29.085], [-103.554, 29.158], [-103.65, 29.156], [-103.66, 29.171], [-103.718, 29.181], [-103.759, 29.233], [-103.777, 29.22], [-103.784, 29.265], [-103.976, 29.296], [-104.038, 29.32], [-104.169, 29.402], [-104.213, 29.452], [-104.21, 29.482], [-104.315, 29.533], [-104.338, 29.52], [-104.381, 29.543], [-104.398, 29.571], [-104.535, 29.671], [-104.53, 29.69], [-104.566, 29.771], [-104.68, 29.925], [-104.673, 29.955], [-104.684, 29.956], [-104.707, 30.051], [-104.685, 30.1], [-104.687, 30.179], [-104.706, 30.235], [-104.75, 30.261], [-104.762, 30.301], [-104.81, 30.335], [-104.816, 30.375], [-104.859, 30.39], [-104.848, 30.42], [-104.899, 30.571], [-104.925, 30.605], [-104.98, 30.622], [-104.917, 30.664], [-104.908, 30.96], [-104.884, 30.959], [-104.883, 30.94], [-104.8, 30.944], [-104.799, 30.915], [-104.766, 30.916], [-104.77, 30.991], [-104.73, 30.993], [-104.734, 31.095], [-104.803, 31.092], [-104.804, 31.112], [-104.909, 31.107], [-104.919, 32], [-103.065, 32], [-103.065, 32.522], [-102.203, 32.523], [-102.209, 32.959], [-102.076, 32.96], [-102.09, 34.313], [-103.044, 34.313], [-103.042, 35.622], [-101.086, 35.625], [-101.086, 36.058], [-100.643, 36.057]]]}}, {"type": "Feature", "properties": {"code": "LZ_AEN"}, "geometry": {"type": "MultiPolygon", "coordinates": [[[[-97.793, 30.095], [-97.786, 30.076], [-97.803, 30.088], [-97.793, 30.095]]], [[[-97.597, 30.162], [-97.557, 30.157], [-97.567, 30.141], [-97.587, 30.152], [-97.593, 30.142], [-97.597, 30.162]]], [[[-97.567, 30.284], [-97.56, 30.303], [-97.528, 30.274], [-97.542, 30.279], [-97.553, 30.262], [-97.567, 30.284]]], [[[-97.54, 30.283], [-97.54, 30.282], [-97.539, 30.282], [-97.54, 30.283]]], [[[-97.938, 30.337], [-97.916, 30.36], [-97.913, 30.392], [-97.88, 30.402], [-97.903, 30.405], [-97.902, 30.419], [-97.856, 30.45], [-97.837, 30.446], [-97.844, 30.459], [-97.811, 30.464], [-97.805, 30.496], [-97.749, 30.517], [-97.75, 30.486], [-97.764, 30.479], [-97.725, 30.474], [-97.716, 30.507], [-97.691, 30.472], [-97.698, 30.44], [-97.672, 30.425], [-97.669, 30.47], [-97.65, 30.429], [-97.669, 30.423], [-97.626, 30.405], [-97.647, 30.386], [-97.633, 30.379], [-97.612, 30.398], [-97.639, 30.359], [-97.631, 30.35], [-97.671, 30.345], [-97.655, 30.33], [-97.624, 30.332], [-97.618, 30.363], [-97.629, 30.363], [-97.607, 30.382], [-97.592, 30.374], [-97.609, 30.363], [-97.602, 30.348], [-97.56, 30.33], [-97.599, 30.265], [-97.634, 30.291], [-97.625, 30.25], [-97.657, 30.227], [-97.639, 30.209], [-97.587, 30.206], [-97.598, 30.188], [-97.61, 30.2], [-97.642, 30.185], [-97.619, 30.183], [-97.604, 30.161], [-97.611, 30.151], [-97.633, 30.167], [-97.613, 30.147], [-97.636, 30.122], [-97.643, 30.149], [-97.676, 30.156], [-97.662, 30.169], [-97.712, 30.194], [-97.703, 30.185], [-97.724, 30.166], [-97.697, 30.151], [-97.696, 30.131], [-97.716, 30.119], [-97.735, 30.129], [-97.724, 30.146], [-97.736, 30.158], [-97.766, 30.127], [-97.801, 30.126], [-97.806, 30.113], [-97.785, 30.113], [-97.813, 30.098], [-97.808, 30.112], [-97.825, 30.115], [-97.798, 30.136], [-97.82, 30.172], [-97.828, 30.148], [-97.863, 30.137], [-97.874, 30.152], [-97.89, 30.148], [-97.896, 30.179], [-97.907, 30.17], [-97.893, 30.142], [-97.913, 30.133], [-97.929, 30.187], [-97.916, 30.204], [-97.888, 30.204], [-97.891, 30.23], [-97.91, 30.235], [-97.905, 30.255], [-97.927, 30.246], [-97.909, 30.26], [-97.909, 30.31], [-97.901, 30.289], [-97.882, 30.287], [-97.887, 30.266], [-97.849, 30.25], [-97.838, 30.274], [-97.856, 30.279], [-97.832, 30.289], [-97.837, 30.299], [-97.811, 30.272], [-97.78, 30.268], [-97.8, 30.29], [-97.78, 30.325], [-97.794, 30.339], [-97.828, 30.303], [-97.825, 30.324], [-97.845, 30.322], [-97.858, 30.352], [-97.909, 30.31], [-97.908, 30.33], [-97.938, 30.337]]], [[[-97.929, 30.331], [-97.926, 30.334], [-97.928, 30.334], [-97.929, 30.331]]], [[[-97.92, 30.338], [-97.889, 30.347], [-97.863, 30.394], [-97.912, 30.381], [-97.92, 30.338]]], [[[-97.919, 30.246], [-97.921, 30.245], [-97.92, 30.244], [-97.919, 30.246]]], [[[-97.918, 30.247], [-97.917, 30.249], [-97.92, 30.251], [-97.918, 30.247]]], [[[-97.92, 30.327], [-97.917, 30.328], [-97.919, 30.33], [-97.92, 30.327]]], [[[-97.915, 30.369], [-97.916, 30.369], [-97.916, 30.369], [-97.915, 30.369]]], [[[-97.914, 30.382], [-97.914, 30.381], [-97.912, 30.381], [-97.914, 30.382]]], [[[-97.911, 30.258], [-97.911, 30.259], [-97.912, 30.259], [-97.911, 30.258]]], [[[-97.905, 30.39], [-97.855, 30.404], [-97.873, 30.426], [-97.879, 30.398], [-97.905, 30.39]]], [[[-97.9, 30.235], [-97.901, 30.235], [-97.901, 30.235], [-97.9, 30.235]]], [[[-97.887, 30.419], [-97.884, 30.421], [-97.887, 30.422], [-97.887, 30.419]]], [[[-97.874, 30.161], [-97.86, 30.146], [-97.853, 30.178], [-97.874, 30.161]]], [[[-97.871, 30.427], [-97.869, 30.417], [-97.863, 30.434], [-97.834, 30.443], [-97.855, 30.45], [-97.871, 30.427]]], [[[-97.853, 30.35], [-97.853, 30.351], [-97.856, 30.351], [-97.853, 30.35]]], [[[-97.849, 30.341], [-97.849, 30.342], [-97.85, 30.341], [-97.849, 30.341]]], [[[-97.844, 30.359], [-97.814, 30.346], [-97.808, 30.354], [-97.844, 30.359]]], [[[-97.814, 30.363], [-97.8, 30.367], [-97.81, 30.371], [-97.814, 30.363]]], [[[-97.844, 30.325], [-97.843, 30.325], [-97.844, 30.326], [-97.844, 30.325]]], [[[-97.843, 30.324], [-97.843, 30.325], [-97.844, 30.324], [-97.843, 30.324]]], [[[-97.838, 30.455], [-97.838, 30.46], [-97.841, 30.454], [-97.838, 30.455]]], [[[-97.837, 30.453], [-97.83, 30.451], [-97.829, 30.456], [-97.837, 30.453]]], [[[-97.837, 30.327], [-97.837, 30.328], [-97.837, 30.327], [-97.837, 30.327]]], [[[-97.836, 30.449], [-97.832, 30.447], [-97.83, 30.45], [-97.836, 30.449]]], [[[-97.836, 30.168], [-97.832, 30.162], [-97.824, 30.172], [-97.836, 30.168]]], [[[-97.831, 30.371], [-97.835, 30.37], [-97.831, 30.368], [-97.831, 30.371]]], [[[-97.834, 30.329], [-97.832, 30.326], [-97.828, 30.331], [-97.834, 30.329]]], [[[-97.832, 30.15], [-97.829, 30.153], [-97.833, 30.153], [-97.832, 30.15]]], [[[-97.831, 30.444], [-97.823, 30.448], [-97.829, 30.451], [-97.831, 30.444]]], [[[-97.83, 30.438], [-97.831, 30.441], [-97.831, 30.438], [-97.83, 30.438]]], [[[-97.829, 30.222], [-97.806, 30.222], [-97.807, 30.24], [-97.829, 30.222]]], [[[-97.825, 30.34], [-97.821, 30.339], [-97.824, 30.342], [-97.825, 30.34]]], [[[-97.824, 30.113], [-97.824, 30.113], [-97.824, 30.113], [-97.824, 30.113]]], [[[-97.817, 30.325], [-97.815, 30.335], [-97.822, 30.329], [-97.817, 30.325]]], [[[-97.821, 30.336], [-97.82, 30.337], [-97.821, 30.337], [-97.821, 30.336]]], [[[-97.821, 30.34], [-97.82, 30.341], [-97.82, 30.342], [-97.821, 30.34]]], [[[-97.818, 30.266], [-97.815, 30.267], [-97.818, 30.269], [-97.818, 30.266]]], [[[-97.815, 30.409], [-97.779, 30.395], [-97.797, 30.401], [-97.794, 30.421], [-97.815, 30.409]]], [[[-97.817, 30.264], [-97.815, 30.266], [-97.817, 30.266], [-97.817, 30.264]]], [[[-97.816, 30.263], [-97.813, 30.266], [-97.815, 30.267], [-97.816, 30.263]]], [[[-97.816, 30.239], [-97.813, 30.239], [-97.813, 30.241], [-97.816, 30.239]]], [[[-97.81, 30.343], [-97.803, 30.348], [-97.807, 30.348], [-97.81, 30.343]]], [[[-97.81, 30.42], [-97.806, 30.42], [-97.808, 30.422], [-97.81, 30.42]]], [[[-97.807, 30.353], [-97.807, 30.353], [-97.808, 30.353], [-97.807, 30.353]]], [[[-97.806, 30.373], [-97.806, 30.375], [-97.807, 30.373], [-97.806, 30.373]]], [[[-97.805, 30.271], [-97.804, 30.269], [-97.802, 30.273], [-97.805, 30.271]]], [[[-97.805, 30.372], [-97.804, 30.372], [-97.804, 30.374], [-97.805, 30.372]]], [[[-97.797, 30.13], [-97.8, 30.13], [-97.797, 30.129], [-97.797, 30.13]]], [[[-97.791, 30.299], [-97.788, 30.3], [-97.79, 30.301], [-97.791, 30.299]]], [[[-97.79, 30.298], [-97.789, 30.298], [-97.79, 30.299], [-97.79, 30.298]]], [[[-97.79, 30.457], [-97.767, 30.467], [-97.762, 30.441], [-97.743, 30.444], [-97.764, 30.475], [-97.79, 30.457]]], [[[-97.785, 30.425], [-97.779, 30.426], [-97.783, 30.428], [-97.785, 30.425]]], [[[-97.783, 30.164], [-97.782, 30.167], [-97.785, 30.166], [-97.783, 30.164]]], [[[-97.78, 30.39], [-97.775, 30.39], [-97.783, 30.393], [-97.78, 30.39]]], [[[-97.781, 30.393], [-97.778, 30.393], [-97.778, 30.396], [-97.781, 30.393]]], [[[-97.782, 30.393], [-97.783, 30.393], [-97.783, 30.393], [-97.782, 30.393]]], [[[-97.78, 30.155], [-97.765, 30.143], [-97.761, 30.164], [-97.78, 30.175], [-97.78, 30.155]]], [[[-97.781, 30.42], [-97.782, 30.419], [-97.781, 30.418], [-97.781, 30.42]]], [[[-97.781, 30.398], [-97.776, 30.397], [-97.779, 30.401], [-97.781, 30.398]]], [[[-97.779, 30.321], [-97.779, 30.322], [-97.779, 30.321], [-97.779, 30.321]]], [[[-97.777, 30.143], [-97.776, 30.141], [-97.776, 30.145], [-97.777, 30.143]]], [[[-97.776, 30.178], [-97.777, 30.179], [-97.778, 30.177], [-97.776, 30.178]]], [[[-97.774, 30.175], [-97.769, 30.174], [-97.77, 30.179], [-97.774, 30.175]]], [[[-97.749, 30.156], [-97.752, 30.159], [-97.752, 30.158], [-97.749, 30.156]]], [[[-97.749, 30.16], [-97.751, 30.16], [-97.75, 30.16], [-97.749, 30.16]]], [[[-97.74, 30.457], [-97.739, 30.459], [-97.742, 30.459], [-97.74, 30.457]]], [[[-97.736, 30.447], [-97.727, 30.446], [-97.73, 30.452], [-97.736, 30.447]]], [[[-97.72, 30.153], [-97.721, 30.156], [-97.725, 30.153], [-97.72, 30.153]]], [[[-97.723, 30.157], [-97.723, 30.156], [-97.723, 30.156], [-97.723, 30.157]]], [[[-97.72, 30.138], [-97.719, 30.143], [-97.722, 30.139], [-97.72, 30.138]]], [[[-97.716, 30.153], [-97.718, 30.152], [-97.716, 30.152], [-97.716, 30.153]]], [[[-97.716, 30.137], [-97.717, 30.136], [-97.716, 30.136], [-97.716, 30.137]]], [[[-97.715, 30.135], [-97.715, 30.137], [-97.716, 30.136], [-97.715, 30.135]]], [[[-97.715, 30.15], [-97.715, 30.151], [-97.715, 30.151], [-97.715, 30.15]]], [[[-97.714, 30.131], [-97.715, 30.129], [-97.714, 30.129], [-97.714, 30.131]]], [[[-97.709, 30.443], [-97.702, 30.441], [-97.709, 30.451], [-97.709, 30.443]]], [[[-97.706, 30.137], [-97.706, 30.137], [-97.706, 30.137], [-97.706, 30.137]]], [[[-97.699, 30.149], [-97.7, 30.148], [-97.699, 30.148], [-97.699, 30.149]]], [[[-97.676, 30.237], [-97.662, 30.225], [-97.626, 30.255], [-97.661, 30.262], [-97.676, 30.237]]], [[[-97.676, 30.467], [-97.674, 30.465], [-97.671, 30.469], [-97.676, 30.467]]], [[[-97.672, 30.465], [-97.669, 30.463], [-97.671, 30.468], [-97.672, 30.465]]], [[[-97.67, 30.323], [-97.663, 30.317], [-97.657, 30.325], [-97.67, 30.323]]], [[[-97.666, 30.449], [-97.665, 30.45], [-97.666, 30.451], [-97.666, 30.449]]], [[[-97.663, 30.452], [-97.665, 30.456], [-97.666, 30.453], [-97.663, 30.452]]], [[[-97.658, 30.166], [-97.644, 30.159], [-97.629, 30.172], [-97.646, 30.186], [-97.658, 30.166]]], [[[-97.651, 30.323], [-97.644, 30.329], [-97.65, 30.328], [-97.651, 30.323]]], [[[-97.647, 30.194], [-97.646, 30.204], [-97.652, 30.198], [-97.647, 30.194]]], [[[-97.642, 30.307], [-97.619, 30.305], [-97.601, 30.335], [-97.641, 30.329], [-97.628, 30.316], [-97.642, 30.307]]], [[[-97.635, 30.146], [-97.624, 30.146], [-97.637, 30.158], [-97.635, 30.146]]], [[[-97.62, 30.389], [-97.62, 30.392], [-97.622, 30.389], [-97.62, 30.389]]], [[[-97.618, 30.387], [-97.619, 30.387], [-97.619, 30.387], [-97.618, 30.387]]], [[[-97.609, 30.342], [-97.602, 30.348], [-97.606, 30.35], [-97.609, 30.342]]], [[[-97.583, 30.305], [-97.586, 30.318], [-97.592, 30.309], [-97.583, 30.305]]], [[[-97.879, 30.397], [-97.877, 30.394], [-97.879, 30.394], [-97.879, 30.397]]], [[[-97.88, 30.398], [-97.88, 30.397], [-97.881, 30.397], [-97.88, 30.398]]], [[[-97.694, 30.464], [-97.689, 30.461], [-97.692, 30.461], [-97.694, 30.464]]]]}}, {"type": "Feature", "properties": {"code": "LZ_CPS"}, "geometry": {"type": "MultiPolygon", "coordinates": [[[[-98.645, 29.29], [-98.641, 29.279], [-98.654, 29.277], [-98.645, 29.29]]], [[[-98.396, 29.282], [-98.412, 29.291], [-98.395, 29.29], [-98.396, 29.282]]], [[[-98.658, 29.374], [-98.662, 29.377], [-98.658, 29.379], [-98.658, 29.374]]], [[[-98.733, 29.385], [-98.732, 29.376], [-98.739, 29.376], [-98.733, 29.385]]], [[[-98.791, 29.44], [-98.791, 29.423], [-98.805, 29.43], [-98.803, 29.448], [-98.791, 29.44]]], [[[-98.767, 29.475], [-98.756, 29.457], [-98.73, 29.462], [-98.745, 29.473], [-98.735, 29.507], [-98.758, 29.516], [-98.752, 29.535], [-98.765, 29.54], [-98.72, 29.526], [-98.716, 29.577], [-98.702, 29.575], [-98.724, 29.605], [-98.688, 29.564], [-98.634, 29.629], [-98.649, 29.636], [-98.637, 29.666], [-98.676, 29.66], [-98.657, 29.675], [-98.691, 29.708], [-98.673, 29.725], [-98.687, 29.738], [-98.657, 29.707], [-98.666, 29.696], [-98.636, 29.676], [-98.644, 29.692], [-98.632, 29.692], [-98.592, 29.643], [-98.608, 29.631], [-98.602, 29.591], [-98.541, 29.592], [-98.56, 29.629], [-98.519, 29.627], [-98.518, 29.707], [-98.472, 29.715], [-98.479, 29.696], [-98.453, 29.694], [-98.439, 29.736], [-98.442, 29.682], [-98.423, 29.687], [-98.419, 29.663], [-98.386, 29.659], [-98.402, 29.627], [-98.406, 29.642], [-98.425, 29.642], [-98.412, 29.637], [-98.423, 29.631], [-98.418, 29.601], [-98.351, 29.592], [-98.312, 29.617], [-98.327, 29.64], [-98.303, 29.653], [-98.281, 29.606], [-98.214, 29.632], [-98.229, 29.61], [-98.206, 29.591], [-98.209, 29.563], [-98.189, 29.565], [-98.199, 29.581], [-98.135, 29.573], [-98.17, 29.58], [-98.176, 29.566], [-98.243, 29.56], [-98.252, 29.534], [-98.276, 29.549], [-98.281, 29.523], [-98.288, 29.543], [-98.299, 29.537], [-98.277, 29.504], [-98.291, 29.492], [-98.309, 29.499], [-98.316, 29.461], [-98.305, 29.462], [-98.389, 29.428], [-98.361, 29.425], [-98.388, 29.423], [-98.389, 29.398], [-98.347, 29.388], [-98.343, 29.406], [-98.334, 29.399], [-98.338, 29.386], [-98.368, 29.395], [-98.361, 29.364], [-98.315, 29.353], [-98.394, 29.372], [-98.414, 29.33], [-98.406, 29.316], [-98.437, 29.318], [-98.412, 29.291], [-98.442, 29.312], [-98.432, 29.274], [-98.462, 29.261], [-98.473, 29.305], [-98.47, 29.256], [-98.481, 29.321], [-98.533, 29.32], [-98.535, 29.308], [-98.553, 29.319], [-98.555, 29.292], [-98.57, 29.327], [-98.586, 29.33], [-98.638, 29.294], [-98.615, 29.32], [-98.625, 29.339], [-98.642, 29.331], [-98.657, 29.393], [-98.725, 29.364], [-98.703, 29.395], [-98.735, 29.411], [-98.738, 29.43], [-98.778, 29.421], [-98.754, 29.426], [-98.766, 29.442], [-98.755, 29.452], [-98.778, 29.459], [-98.767, 29.475]]], [[[-98.42, 29.685], [-98.42, 29.687], [-98.417, 29.686], [-98.42, 29.685]]], [[[-98.658, 29.723], [-98.658, 29.771], [-98.625, 29.771], [-98.651, 29.771], [-98.636, 29.754], [-98.645, 29.742], [-98.623, 29.744], [-98.624, 29.72], [-98.637, 29.731], [-98.657, 29.712], [-98.658, 29.723]]], [[[-98.451, 29.755], [-98.45, 29.772], [-98.426, 29.777], [-98.439, 29.772], [-98.439, 29.736], [-98.451, 29.755]]], [[[-98.4, 29.323], [-98.388, 29.343], [-98.352, 29.319], [-98.373, 29.299], [-98.355, 29.291], [-98.402, 29.31], [-98.4, 29.323]]], [[[-98.317, 29.458], [-98.314, 29.457], [-98.318, 29.456], [-98.317, 29.458]]], [[[-98.132, 29.573], [-98.14, 29.561], [-98.145, 29.568], [-98.132, 29.573]]], [[[-98.204, 29.644], [-98.223, 29.634], [-98.197, 29.649], [-98.204, 29.644]]], [[[-98.193, 29.651], [-98.189, 29.654], [-98.189, 29.653], [-98.193, 29.651]]], [[[-98.177, 29.647], [-98.189, 29.653], [-98.183, 29.658], [-98.177, 29.647]]], [[[-98.189, 29.729], [-98.174, 29.739], [-98.154, 29.718], [-98.111, 29.745], [-98.088, 29.737], [-98.072, 29.764], [-98.055, 29.751], [-98.048, 29.737], [-98.073, 29.714], [-98.06, 29.709], [-98.07, 29.689], [-98.055, 29.67], [-98.031, 29.673], [-98.05, 29.662], [-98.024, 29.607], [-98.033, 29.584], [-98.047, 29.581], [-98.046, 29.608], [-98.094, 29.665], [-98.115, 29.647], [-98.144, 29.674], [-98.165, 29.655], [-98.195, 29.658], [-98.159, 29.68], [-98.182, 29.71], [-98.166, 29.72], [-98.182, 29.724], [-98.194, 29.707], [-98.186, 29.725], [-98.215, 29.738], [-98.189, 29.729]]], [[[-98.102, 29.762], [-98.1, 29.746], [-98.098, 29.765], [-98.102, 29.762]]]]}}]}